ID,Category,Subcategory,Organization Name,Phone,Email,Address,City,State,Zip,Website,Keywords,Description,Source
3e5e271d-001f-41cc-9369-67d0f3b63518,Transportation,Gas Money,SOCIETY OF ST VINCENT DE PAUL (SVDP) - FORT WORTH DISTRICT COUNCIL | HOLY FAMILY CONFERENCE | FINANCIAL ASSISTANCE - HOLY FAMILY CONFERENCE,"817-727-0121 
							Holy Family Conference",societysvdpfw@gmail.com,6150 Pershing Avenue,Fort Worth,TX,76107,http://www.svdpfw.org/,"Transportation, Gas Money","Provides limited financial assistance which includes gas money and prescription expenses. Services are based on needs assessment and available funding; will provide additional community resources if no funding is available. Funding availability varies as this comes from donations. NOTE: The agency will attempt to help anyone meeting their eligibility, but sometimes funding is not available at the time the help-seeker calls.",https://tarrant.tx.networkofcare.org/pr/services/agency.aspx?pid=SocietyofStVincentdePaulSVDPFortWorthDistrictCouncilHolyFamilyConferenceFinancialAssistanceHolyFamilyConference_1208_19_0
6b982244-be6c-4d5e-80fd-e069c432520a,Transportation,Gas Money,SOCIETY OF ST VINCENT DE PAUL (SVDP) - FORT WORTH DISTRICT COUNCIL | OUR MOTHER OF MERCY CONFERENCE | FINANCIAL ASSISTANCE - OUR MOTHER OF MERCY CONFERENCE,"817-768-1950 
							Our Mother of Percey Conference",societysvdpfw@gmail.com,1001 East Terrell Avenue,Fort Worth,TX,76104,http://www.svdpfw.org/,"Transportation, Gas Money","Provides limited financial assistance which includes gas money and prescription expenses. Services are based on needs assessment and available funding; will provide additional community resources if no funding is available. Funding availability varies as this comes from donations. NOTE: The agency will attempt to help anyone meeting their eligibility, but sometimes funding is not available at the time the help-seeker calls.",https://tarrant.tx.networkofcare.org/pr/services/agency.aspx?pid=SocietyofStVincentdePaulSVDPFortWorthDistrictCouncilOurMotherofMercyConferenceFinancialAssistanceOurMotherofMercyConference_1208_19_0
61589a4b-cc4a-4c84-8fcb-18cce624e437,Transportation,Gas Money,SOCIETY OF ST VINCENT DE PAUL (SVDP) - FORT WORTH DISTRICT COUNCIL | ST ANDREW CONFERENCE | FINANCIAL ASSISTANCE - ST ANDREW CONFERENCE,"817-926-5741 
							St Andrew Conference",societysvdpfw@gmail.com,3312 Dryden Road,Fort Worth,TX,76109,http://www.svdpfw.org/,"Transportation, Gas Money","Provides limited financial assistance which includes gas money and prescription expenses. Services are based on needs assessment and available funding; will provide additional community resources if no funding is available. Funding availability varies as this comes from donations. NOTE: The agency will attempt to help anyone meeting their eligibility, but sometimes funding is not available at the time the help-seeker calls.",https://tarrant.tx.networkofcare.org/pr/services/agency.aspx?pid=SocietyofStVincentdePaulSVDPFortWorthDistrictCouncilStAndrewConferenceFinancialAssistanceStAndrewConference_1208_19_0
4a522edf-add5-4948-ba1e-9766dbf5f51c,Transportation,Gas Money,SOCIETY OF ST VINCENT DE PAUL (SVDP) - FORT WORTH DISTRICT COUNCIL | ST BARTHOLOMEW CONFERENCE | FINANCIAL ASSISTANCE - ST BARTHOLOMEW CONFERENCE,"817-361-8420 
							St Bartholomew Conference",societysvdpfw@gmail.com,3565 Altamesa Boulevard,Fort Worth,TX,76133,http://www.svdpfw.org/,"Transportation, Gas Money","Provides limited financial assistance which includes gas money and prescription expenses. Services are based on needs assessment and available funding; will provide additional community resources if no funding is available. Funding availability varies as this comes from donations. NOTE: The agency will attempt to help anyone meeting their eligibility, but sometimes funding is not available at the time the help-seeker calls.",https://tarrant.tx.networkofcare.org/pr/services/agency.aspx?pid=SocietyofStVincentdePaulSVDPFortWorthDistrictCouncilStBartholomewConferenceFinancialAssistanceStBartholomewConference_1208_19_0
da29aeed-bb68-4dc3-bc55-8adbc1e4c75a,Transportation,Gas Money,SOCIETY OF ST VINCENT DE PAUL (SVDP) - FORT WORTH DISTRICT COUNCIL | ST CATHERINE OF SIENA CONFERENCE | FINANCIAL ASSISTANCE - ST CATHERINE OF SIENA CONFERENCE,"972-480-5287 
							St Catherine of Siena Conference",societysvdpfw@gmail.com,1705 East Peters Colony Road,Carrollton,TX,75007,http://www.svdpfw.org/,"Transportation, Gas Money","Provides limited financial assistance for rent and utility bills based on available funding; will provide additional community resources if no funding is available. Funding availability varies as this comes from donations. NOTE: The agency will attempt to help anyone meeting their eligibility, but sometimes funding is not available at the time the help-seeker calls.",https://tarrant.tx.networkofcare.org/pr/services/agency.aspx?pid=SocietyofStVincentdePaulSVDPFortWorthDistrictCouncilStCatherineofSienaConferenceFinancialAssistanceStCatherineofSienaConference_1208_19_0
070b7e5d-ff10-4634-9d53-da480886302a,Transportation,Gas Money,SOCIETY OF ST VINCENT DE PAUL (SVDP) - FORT WORTH DISTRICT COUNCIL | ST JOSEPH CONFERENCE | FINANCIAL ASSISTANCE - ST JOSEPH CONFERENCE,"682-429-8231 
							St Joseph Conference",societysvdpfw@gmail.com,1927 Southwest Green Oaks Boulevard,Arlington,TX,76017,http://www.svdpfw.org/,"Transportation, Gas Money","Provides limited financial assistance which includes gas money and prescription expenses. Services are based on needs assessment and available funding; will provide additional community resources if no funding is available. Funding availability varies as this comes from donations. NOTE: The agency will attempt to help anyone meeting their eligibility, but sometimes funding is not available at the time the help-seeker calls.",https://tarrant.tx.networkofcare.org/pr/services/agency.aspx?pid=SocietyofStVincentdePaulSVDPFortWorthDistrictCouncilStJosephConferenceFinancialAssistanceStJosephConference_1208_19_1
88fd4fb3-0cd0-4cb7-aa26-888b72f9d2cb,Transportation,Gas Money,SOCIETY OF ST VINCENT DE PAUL (SVDP) - FORT WORTH DISTRICT COUNCIL | ST JUDE CONFERENCE | FINANCIAL ASSISTANCE - ST JUDE CONFERENCE,"682-518-0366 
							St Jude Conference",societysvdpfw@gmail.com,500 East Dallas Street,Mansfield,TX,76063,http://www.svdpfw.org/,"Transportation, Gas Money","Provides limited financial assistance which includes gas money and prescription expenses. Services are based on needs assessment and available funding; will provide additional community resources if no funding is available. Funding availability varies as this comes from donations. NOTE: The agency will attempt to help anyone meeting their eligibility, but sometimes funding is not available at the time the help-seeker calls.",https://tarrant.tx.networkofcare.org/pr/services/agency.aspx?pid=SocietyofStVincentdePaulSVDPFortWorthDistrictCouncilStJudeConferenceFinancialAssistanceStJudeConference_1208_19_0
06423332-1c19-4982-bd00-d475685f8854,Transportation,Gas Money,SOCIETY OF ST VINCENT DE PAUL (SVDP) - FORT WORTH DISTRICT COUNCIL | ST MARIA GORETTI CONFERENCE | FINANCIAL ASSISTANCE - ST MARIA GORETTI CONFERENCE,"817-260-0376 
							St Maria Goretti Conference",societysvdpfw@gmail.com,1200 South Davis Drive,Arlington,TX,76013,http://www.svdpfw.org/,"Transportation, Gas Money","Provides limited financial assistance which includes gas money and prescription expenses. Services are based on needs assessment and available funding; will provide additional community resources if no funding is available. Funding availability varies as this comes from donations. NOTE: The agency will attempt to help anyone meeting their eligibility, but sometimes funding is not available at the time the help-seeker calls.",https://tarrant.tx.networkofcare.org/pr/services/agency.aspx?pid=SocietyofStVincentdePaulSVDPFortWorthDistrictCouncilStMariaGorettiConferenceFinancialAssistanceStMariaGorettiConference_1208_19_0
1d356c20-bba6-48de-98ee-375341c199c4,Transportation,Gas Money,SOCIETY OF ST VINCENT DE PAUL (SVDP) - FORT WORTH DISTRICT COUNCIL | ST PETER THE APOSTLE CONFERENCE | FINANCIAL ASSISTANCE - ST PETER THE APOSTLE CONFERENCE,"817-595-6909 
							St Peter the Apostle Conference",societysvdpfw@gmail.com,1201 South Cherry Lane,White Settlement,TX,76108,http://www.svdpfw.org/,"Transportation, Gas Money","Provides limited financial assistance which includes gas money and prescription expenses. Services are based on needs assessment and available funding; will provide additional community resources if no funding is available. Funding availability varies as this comes from donations. NOTE: The agency will attempt to help anyone meeting their eligibility, but sometimes funding is not available at the time the help-seeker calls.",https://tarrant.tx.networkofcare.org/pr/services/agency.aspx?pid=SocietyofStVincentdePaulSVDPFortWorthDistrictCouncilStPetertheApostleConferenceFinancialAssistanceStPetertheApostleConference_1208_19_0
7cb0ed25-2fc1-496c-a52e-c92fed0f1a1c,Transportation,Gas Money,SOCIETY OF ST VINCENT DE PAUL (SVDP) - FORT WORTH DISTRICT COUNCIL | ST STEPHEN CONFERENCE | FINANCIAL ASSISTANCE - ST STEPHEN CONFERENCE,"682-803-0713 
							St Stephen Conference",societysvdpfw@gmail.com,1802 Bethel Road,Weatherford,TX,76086,http://www.svdpfw.org/,"Transportation, Gas Money","Provides limited financial assistance for utility bills based on available funding; will provide additional community resources if no funding is available. Funding availability varies as this comes from donations. NOTE: The agency will attempt to help anyone meeting their eligibility, but sometimes funding is not available at the time the help-seeker calls.",https://tarrant.tx.networkofcare.org/pr/services/agency.aspx?pid=SocietyofStVincentdePaulSVDPFortWorthDistrictCouncilStStephenConferenceFinancialAssistanceStStephenConference_1208_19_0
c464911a-c922-4084-870d-e56b986f6202,Transportation,Gas Money,SOCIETY OF ST VINCENT DE PAUL (SVDP) - FORT WORTH DISTRICT COUNCIL | ST THOMAS THE APOSTLE CONFERENCE | FINANCIAL ASSISTANCE - ST THOMAS THE APOSTLE CONFERENCE,"817-595-6595 
							St Thomas the Apostle Conference",societysvdpfw@gmail.com,5953 Bowman Roberts Road,Fort Worth,TX,76179,http://www.svdpfw.org/,"Transportation, Gas Money","Provides limited financial assistance which includes gas money and prescription expenses. Services are based on needs assessment and available funding; will provide additional community resources if no funding is available. Funding availability varies as this comes from donations. NOTE: The agency will attempt to help anyone meeting their eligibility, but sometimes funding is not available at the time the help-seeker calls.",https://tarrant.tx.networkofcare.org/pr/services/agency.aspx?pid=SocietyofStVincentdePaulSVDPFortWorthDistrictCouncilStThomastheApostleConferenceFinancialAssistanceStThomastheApostleConference_1208_19_0
18095982-c9fd-4bce-9236-e69b41d07305,Transportation,Gas Money,SOCIETY OF ST VINCENT DE PAUL (SVDP) - FORT WORTH DISTRICT COUNCIL | ST VINCENT DE PAUL CONFERENCE | FINANCIAL ASSISTANCE - ST VINCENT DE PAUL CONFERENCE,"817-478-8206 
							Ext 401 St Vincent de Paul Conference",societysvdpfw@gmail.com,5819 West Pleasant Ridge Road,Arlington,TX,76016,http://www.svdpfw.org/,"Transportation, Gas Money","Provides limited financial assistance for rent and utility bills based on available funding; will provide additional community resources if no funding is available. Funding availability varies as this comes from donations. NOTE: The agency will attempt to help anyone meeting their eligibility, but sometimes funding is not available at the time the help-seeker calls.",https://tarrant.tx.networkofcare.org/pr/services/agency.aspx?pid=SocietyofStVincentdePaulSVDPFortWorthDistrictCouncilStVincentdePaulConferenceFinancialAssistanceStVincentdePaulConference_1208_19_0
78646313-cbd2-4f09-a951-e8f152d184e3,Transportation,Gas Money,WESTHILL CHURCH OF CHRIST | BRIDGE CENTER | FINANCIAL MINISTRY,"817-645-9193 
							Main Phone",office@westhillchurch.net,401 E Henderson St,Cleburne,TX,76031,http://westhillchurch.net/outreach/the-bridge,"Transportation, Gas Money","Offers financial assistance for prescriptions, utilities (electric, water and gas) as well as gasoline, depending on availability of funds.Note: The agency does not assist with deposit, reconnection or late fees; Usage only.",https://tarrant.tx.networkofcare.org/pr/services/agency.aspx?pid=WesthillChurchofChristBridgeCenterFinancialMinistry_1208_19_0
