ID,Category,Subcategory,Organization Name,Phone,Email,Address,City,State,Zip,Website,Keywords,Description,Source
fd992e8a-2c22-4145-8e02-3e8a9c35c1ce,Financial Services,Gas Service Payment Assistance,AGING AND DISABILITY RESOURCE CENTER (ADRC) OF TARRANT COUNTY | AGING DISABILITY RESOURCE CENTER OF TARRANT COUNTY | UTILITY ASSISTANCE,"855-937-2372 
							Main line",tarrantcountyadrc@gmail.com,1300 Circle Dr,Fort Worth,TX,76119,http://www.unitedwaytarrant.org/aaatc/,"Financial Services, Gas Service Payment Assistance","Assists with electric, gas, and water bills for individuals age 60 and older in Tarrant County once every six months based on the service date.",https://tarrant.tx.networkofcare.org/pr/services/agency.aspx?pid=AgingandDisabilityResourceCenterADRCofTarrantCountyAgingDisabilityResourceCenterofTarrantCountyUtilityAssistance_1208_19_0
562ba3df-3c10-49df-9d99-d28528514291,Financial Services,Gas Service Payment Assistance,ARLINGTON URBAN MINISTRIES (AUM) | MAIN OFFICE | EMERGENCY ASSISTANCE,"817-861-8585 
							Main Phone",a_u_m@sbcglobal.net,701 Dugan Street,Arlington,TX,76010,http://arlingtonurbanministries.org/our-programs,"Financial Services, Gas Service Payment Assistance","Provides emergency assistance for utilities for Arlington residents facing a crisis. Can assist with antibiotics. Pays up to $125 on a utility bill.
**For bills greater than $100, the client must pay a portion of the bill and show proof of payment (receipt or confirmation number). Note: The agency does not assist with deposits, but may be able to assist with reconnection or late fees, depending on the Utility Company (Does not assist with TXU fees). Any person who connects with a shelter/partnering agency is entered into a shared information system that is managed by the Housing Related Coordinated Entry Lead Agency, and there are multiple access points. NOTE: This agency is an access point.",https://tarrant.tx.networkofcare.org/pr/services/agency.aspx?pid=ArlingtonUrbanMinistriesAUMMainOfficeEmergencyAssistance_1208_19_0
fc8078d7-6f04-46d6-be89-5ce6bf30b12b,Financial Services,Gas Service Payment Assistance,COMMUNITY ACTION PARTNERS FORT WORTH NEIGHBORHOOD SERVICES (CAP) | ANDREW DOC SESSION CENTER | CEAP AND UTILITY SERVICES,"817-392-5795 
							Mail-In Applications",caponline@fortworthtexas.gov,201 South Sylvania Avenue,Fort Worth,TX,76111,http://www.fortworthtexas.gov/departments/neighborhoods/cap/apply,"Financial Services, Gas Service Payment Assistance","Provides utility assistance with electric, gas, and heating fuel through Comprehensive Energy Assistance Program (CEAP) funding and to customers of Atmos Energy, TXU, Reliant, and other pre-paid electricity companies.
Note: Applications online will start on February 5, 2024. The agency does not assist with deposit, reconnection, or late fees; Only usage. The agency assists with Reliant Customers, among other electric providers.",https://tarrant.tx.networkofcare.org/pr/services/agency.aspx?pid=CommunityActionPartnersFortWorthNeighborhoodServicesCAPAndrewDocSessionCenterCEAPandUtilityServices_1208_19_0
080564cc-32a3-4a9c-92b1-89732a83cec1,Financial Services,Gas Service Payment Assistance,COMMUNITY ACTION PARTNERS FORT WORTH NEIGHBORHOOD SERVICES (CAP) | ANDREW DOC SESSION CENTER | FORWARD HOME PROGRAM,"817-392-5720 
							Mail-In Applications",caponline@fortworthtexas.gov,201 South Sylvania Avenue,Fort Worth,TX,76111,http://www.fortworthtexas.gov/departments/neighborhoods/cap/programs-for-veterans,"Financial Services, Gas Service Payment Assistance","Provides one-time payments for rent, mortgage, and utilities (water, electric, and gas).
Note: The agency assists with Reliant Customers, among other electric providers. By making this referral, we know you fit the basic eligibility for this service. However, the referral to this agency is not a guarantee of assistance.
Note: The agency does not assist with deposit, reconnection, or late fees; Only usage.",https://tarrant.tx.networkofcare.org/pr/services/agency.aspx?pid=CommunityActionPartnersFortWorthNeighborhoodServicesCAPAndrewDocSessionCenterForwardHomeProgram_1208_19_0
e7ee2135-3efb-4b3f-affc-b05edf5bf4b4,Financial Services,Gas Service Payment Assistance,COMMUNITY ACTION PARTNERS FORT WORTH NEIGHBORHOOD SERVICES (CAP) | COMO CENTER | CEAP AND UTILITY SERVICES,"817-392-5795 
							Mail-In Applications",caponline@fortworthtexas.gov,3551 New York Avenue,Fort Worth,TX,76110,http://www.fortworthtexas.gov/departments/neighborhoods/cap/apply,"Financial Services, Gas Service Payment Assistance","Provides utility assistance with electric, gas, and heating fuel through Comprehensive Energy Assistance Program (CEAP) funding and to customers of Atmos Energy, TXU, Reliant, and other pre-paid electricity companies.
Note: Applications online will start on February 5, 2024. The agency does not assist with deposit, reconnection, or late fees; Only usage. The agency assists with Reliant Customers, among other electric providers.",https://tarrant.tx.networkofcare.org/pr/services/agency.aspx?pid=CommunityActionPartnersFortWorthNeighborhoodServicesCAPComoCenterCEAPandUtilityServices_1208_19_0
6cae3a40-f287-4d55-8d67-fac8ecbb1422,Financial Services,Gas Service Payment Assistance,COMMUNITY ACTION PARTNERS FORT WORTH NEIGHBORHOOD SERVICES (CAP) | COMO CENTER | FORWARD HOME PROGRAM,"817-392-5720 
							Mail-In Applications",caponline@fortworthtexas.gov,3551 New York Avenue,Fort Worth,TX,76110,http://www.fortworthtexas.gov/departments/neighborhoods/cap/programs-for-veterans,"Financial Services, Gas Service Payment Assistance","Provides one-time payments for rent, mortgage, and utilities (water, electric, and gas).
Note: The agency assists with Reliant Customers, among other electric providers. By making this referral, we know you fit the basic eligibility for this service. However, the referral to this agency is not a guarantee of assistance.
Note: The agency does not assist with deposit, reconnection, or late fees; Only usage.",https://tarrant.tx.networkofcare.org/pr/services/agency.aspx?pid=CommunityActionPartnersFortWorthNeighborhoodServicesCAPComoCenterForwardHomeProgram_1208_19_0
99424bcb-32ea-4c9f-8edb-9d18d8e52553,Financial Services,Gas Service Payment Assistance,COMMUNITY ACTION PARTNERS FORT WORTH NEIGHBORHOOD SERVICES (CAP) | MARTIN LUTHER KING CENTER | CEAP AND UTILITY SERVICES,"817-392-5795 
							Mail-In Applications",caponline@fortworthtexas.gov,3551 New York Avenue,Fort Worth,TX,76110,http://www.fortworthtexas.gov/departments/neighborhoods/cap/apply,"Financial Services, Gas Service Payment Assistance","Provides utility assistance with electric, gas, and heating fuel through Comprehensive Energy Assistance Program (CEAP) funding and to customers of Atmos Energy, TXU, Reliant, and other pre-paid electricity companies.
Note: Applications online will start on February 5, 2024. The agency does not assist with deposit, reconnection, or late fees; Only usage. The agency assists with Reliant Customers, among other electric providers.",https://tarrant.tx.networkofcare.org/pr/services/agency.aspx?pid=CommunityActionPartnersFortWorthNeighborhoodServicesCAPMartinLutherKingCenterCEAPandUtilityServices_1208_19_0
59a54c00-c6e9-43d9-93a7-9c032a6d0bd0,Financial Services,Gas Service Payment Assistance,COMMUNITY ACTION PARTNERS FORT WORTH NEIGHBORHOOD SERVICES (CAP) | MARTIN LUTHER KING CENTER | FORWARD HOME PROGRAM,"817-392-5720 
							Mail-In Applications",caponline@fortworthtexas.gov,3551 New York Avenue,Fort Worth,TX,76110,http://www.fortworthtexas.gov/departments/neighborhoods/cap/programs-for-veterans,"Financial Services, Gas Service Payment Assistance","Provides one-time payments for rent, mortgage, and utilities (water, electric, and gas).
Note: The agency assists with Reliant Customers, among other electric providers. By making this referral, we know you fit the basic eligibility for this service. However, the referral to this agency is not a guarantee of assistance.
Note: The agency does not assist with deposit, reconnection, or late fees; Only usage.",https://tarrant.tx.networkofcare.org/pr/services/agency.aspx?pid=CommunityActionPartnersFortWorthNeighborhoodServicesCAPMartinLutherKingCenterForwardHomeProgram_1208_19_0
735f0432-c89a-4fbe-9219-8e59bfc6e1ef,Financial Services,Gas Service Payment Assistance,COMMUNITY ACTION PARTNERS FORT WORTH NEIGHBORHOOD SERVICES (CAP) | NORTHSIDE CENTER | CEAP AND UTILITY SERVICES,"817-392-5795 
							Mail-In Applications",caponline@fortworthtexas.gov,1100 Northwest 18th Street,Fort Worth,TX,76164,http://www.fortworthtexas.gov/departments/neighborhoods/cap/apply,"Financial Services, Gas Service Payment Assistance","Provides utility assistance with electric, gas, and heating fuel through Comprehensive Energy Assistance Program (CEAP) funding and to customers of Atmos Energy, TXU, Reliant, and other pre-paid electricity companies.
Note: Applications online will start on February 5, 2024. The agency does not assist with deposit, reconnection, or late fees; Only usage. The agency assists with Reliant Customers, among other electric providers.",https://tarrant.tx.networkofcare.org/pr/services/agency.aspx?pid=CommunityActionPartnersFortWorthNeighborhoodServicesCAPNorthsideCenterCEAPandUtilityServices_1208_19_0
88a923a1-0317-45c5-9bea-f8a8df0db9fc,Financial Services,Gas Service Payment Assistance,COMMUNITY ACTION PARTNERS FORT WORTH NEIGHBORHOOD SERVICES (CAP) | NORTHSIDE CENTER | FORWARD HOME PROGRAM,"817-392-5720 
							Mail-In Applications",caponline@fortworthtexas.gov,1100 Northwest 18th Street,Fort Worth,TX,76164,http://www.fortworthtexas.gov/departments/neighborhoods/cap/programs-for-veterans,"Financial Services, Gas Service Payment Assistance","Provides one-time payments for rent, mortgage, and utilities (water, electric, and gas).
Note: The agency assists with Reliant Customers, among other electric providers. By making this referral, we know you fit the basic eligibility for this service. However, the referral to this agency is not a guarantee of assistance.
Note: The agency does not assist with deposit, reconnection, or late fees; Only usage.",https://tarrant.tx.networkofcare.org/pr/services/agency.aspx?pid=CommunityActionPartnersFortWorthNeighborhoodServicesCAPNorthsideCenterForwardHomeProgram_1208_19_0
0780fe03-742d-471c-a09d-bba5538a5b0e,Financial Services,Gas Service Payment Assistance,COMMUNITY ACTION PARTNERS FORT WORTH NEIGHBORHOOD SERVICES (CAP) | NORTH TRIETHNIC CENTER | CEAP AND UTILITY SERVICES,"817-392-5795 
							Mail-In Applications",caponline@fortworthtexas.gov,2950 Roosevelt Avenue,Fort Worth,TX,76106,http://www.fortworthtexas.gov/departments/neighborhoods/cap/apply,"Financial Services, Gas Service Payment Assistance","Provides utility assistance with electric, gas, and heating fuel through Comprehensive Energy Assistance Program (CEAP) funding and to customers of Atmos Energy, TXU, Reliant, and other pre-paid electricity companies.
Note: Applications online will start on February 5, 2024. The agency does not assist with deposit, reconnection, or late fees; Only usage. The agency assists with Reliant Customers, among other electric providers.",https://tarrant.tx.networkofcare.org/pr/services/agency.aspx?pid=CommunityActionPartnersFortWorthNeighborhoodServicesCAPNorthTriEthnicCenterCEAPandUtilityServices_1208_19_0
2132b2dc-c314-4782-9790-f481c14812ac,Financial Services,Gas Service Payment Assistance,COMMUNITY ACTION PARTNERS FORT WORTH NEIGHBORHOOD SERVICES (CAP) | NORTH TRIETHNIC CENTER | FORWARD HOME PROGRAM,"817-392-5720 
							Mail-In Applications",caponline@fortworthtexas.gov,2950 Roosevelt Avenue,Fort Worth,TX,76106,http://www.fortworthtexas.gov/departments/neighborhoods/cap/programs-for-veterans,"Financial Services, Gas Service Payment Assistance","Provides one-time payments for rent, mortgage, and utilities (water, electric, and gas).
Note: The agency assists with Reliant Customers, among other electric providers. By making this referral, we know you fit the basic eligibility for this service. However, the referral to this agency is not a guarantee of assistance.
Note: The agency does not assist with deposit, reconnection, or late fees; Only usage.",https://tarrant.tx.networkofcare.org/pr/services/agency.aspx?pid=CommunityActionPartnersFortWorthNeighborhoodServicesCAPNorthTriEthnicCenterForwardHomeProgram_1208_19_0
03af30be-33c2-45d4-be48-5db483613804,Financial Services,Gas Service Payment Assistance,COMMUNITY ACTION PARTNERS FORT WORTH NEIGHBORHOOD SERVICES (CAP) | SOUTHSIDE CENTER | CEAP AND UTILITY SERVICES,"817-392-5795 
							Mail-In Applications",caponline@fortworthtexas.gov,3551 New York Avenue,Fort Worth,TX,76110,http://www.fortworthtexas.gov/departments/neighborhoods/cap/apply,"Financial Services, Gas Service Payment Assistance","Provides utility assistance with electric, gas, and heating fuel through Comprehensive Energy Assistance Program (CEAP) funding and to customers of Atmos Energy, TXU, Reliant, and other pre-paid electricity companies.
Note: Applications online will start on February 5, 2024. The agency does not assist with deposit, reconnection, or late fees; Only usage. The agency assists with Reliant Customers, among other electric providers.",https://tarrant.tx.networkofcare.org/pr/services/agency.aspx?pid=CommunityActionPartnersFortWorthNeighborhoodServicesCAPSouthsideCenterCEAPandUtilityServices_1208_19_0
25ad5861-e6c4-4c2a-8281-72e7fbbaddcc,Financial Services,Gas Service Payment Assistance,COMMUNITY ACTION PARTNERS FORT WORTH NEIGHBORHOOD SERVICES (CAP) | SOUTHSIDE CENTER | FORWARD HOME PROGRAM,"817-392-5720 
							Mail-In Applications",caponline@fortworthtexas.gov,3551 New York Avenue,Fort Worth,TX,76110,http://www.fortworthtexas.gov/departments/neighborhoods/cap/programs-for-veterans,"Financial Services, Gas Service Payment Assistance","Provides one-time payments for rent, mortgage, and utilities (water, electric, and gas).
Note: The agency assists with Reliant Customers, among other electric providers. By making this referral, we know you fit the basic eligibility for this service. However, the referral to this agency is not a guarantee of assistance.
Note: The agency does not assist with deposit, reconnection, or late fees; Only usage.",https://tarrant.tx.networkofcare.org/pr/services/agency.aspx?pid=CommunityActionPartnersFortWorthNeighborhoodServicesCAPSouthsideCenterForwardHomeProgram_1208_19_0
54cfd9eb-2985-4868-ac12-c3de81547c04,Financial Services,Gas Service Payment Assistance,COMMUNITY ACTION PARTNERS FORT WORTH NEIGHBORHOOD SERVICES (CAP) | WORTH HEIGHTS COMMUNITY CENTER | CEAP AND UTILITY SERVICES,"817-392-5795 
							Mail-In Applications",caponline@fortworthtexas.gov,3551 New York Avenue,Fort Worth,TX,76110,http://www.fortworthtexas.gov/departments/neighborhoods/cap/apply,"Financial Services, Gas Service Payment Assistance","Provides utility assistance with electric, gas, and heating fuel through Comprehensive Energy Assistance Program (CEAP) funding and to customers of Atmos Energy, TXU, Reliant, and other pre-paid electricity companies.
Note: Applications online will start on February 5, 2024. The agency does not assist with deposit, reconnection, or late fees; Only usage. The agency assists with Reliant Customers, among other electric providers.",https://tarrant.tx.networkofcare.org/pr/services/agency.aspx?pid=CommunityActionPartnersFortWorthNeighborhoodServicesCAPWorthHeightsCommunityCenterCEAPandUtilityServices_1208_19_0
dcfb6db6-5ae9-4a6d-b68a-ac5a314fe007,Financial Services,Gas Service Payment Assistance,COMMUNITY ACTION PARTNERS FORT WORTH NEIGHBORHOOD SERVICES (CAP) | WORTH HEIGHTS COMMUNITY CENTER | FORWARD HOME PROGRAM,"817-392-5720 
							Mail-In Applications",caponline@fortworthtexas.gov,3551 New York Avenue,Fort Worth,TX,76110,http://www.fortworthtexas.gov/departments/neighborhoods/cap/programs-for-veterans,"Financial Services, Gas Service Payment Assistance","Provides one-time payments for rent, mortgage, and utilities (water, electric, and gas).
Note: The agency assists with Reliant Customers, among other electric providers. By making this referral, we know you fit the basic eligibility for this service. However, the referral to this agency is not a guarantee of assistance.
Note: The agency does not assist with deposit, reconnection, or late fees; Only usage.",https://tarrant.tx.networkofcare.org/pr/services/agency.aspx?pid=CommunityActionPartnersFortWorthNeighborhoodServicesCAPWorthHeightsCommunityCenterForwardHomeProgram_1208_19_0
adabd283-3a7f-40ba-80a1-2042555da122,Financial Services,Gas Service Payment Assistance,MISSION GRANBURY | RESOURCE CENTER | EMERGENCY ASSISTANCE NETWORK (EAN),"817-579-6866 
							Main Phone",,,,,,http://www.missiongranbury.org/food-pantry-emergency-assistance,"Financial Services, Gas Service Payment Assistance","Provides limited emergency financial assistance with rent, utilities, and medication. Other needs will be considered on a case by case basis. By making this referral, we know you fit the basic eligibility for this service. However, the referral to this agency is not a gurantee of assistance.Does not provide financial assistance with utility reconnection, utility deposits, or rent deposits.",https://tarrant.tx.networkofcare.org/pr/services/agency.aspx?pid=MissionGranburyResourceCenterEmergencyAssistanceNetworkEAN_1208_19_0
c301887b-157f-474c-b67e-a1c7c5d96617,Financial Services,Gas Service Payment Assistance,H.O.P.E. (HELPING OTHER PEOPLE EFFECTIVELY) | MAIN OFFICE | MON - FRI FOOD PANTRY,"254-965-2700 
							Main Phone",hope9652700@gmail.com,1617 East Washington Street,Stephenville,TX,76401,http://www.hopestephenville.com/,"Financial Services, Gas Service Payment Assistance","Provides food, clothing and limited financial assistance (depending on availability of funds) for rent and utilities. Sponsors medical and dental clinics for qualified patients.By making this referral, we know you fit the basic eligibility for this service. However, the referral to this agency is not a guarantee of assistance.",https://tarrant.tx.networkofcare.org/pr/services/agency.aspx?pid=HOPEHelpingOtherPeopleEffectivelyMainOfficeMonFriFoodPantry_1208_19_0
92c859b0-a260-40fe-b39f-373d4c9ef4ad,Financial Services,Gas Service Payment Assistance,SOCIETY OF ST VINCENT DE PAUL (SVDP) - FORT WORTH DISTRICT COUNCIL | HOLY FAMILY CONFERENCE | BASIC NEEDS - HOLY FAMILY CONFERENCE,"817-727-0121 
							Holy Family Conference",societysvdpfw@gmail.com,6150 Pershing Avenue,Fort Worth,TX,76107,http://www.svdpfw.org/,"Financial Services, Gas Service Payment Assistance","Provides limited financial assistance for rent and utility bills based on available funding; will provide additional community resources if no funding is available. Funding availability varies as this comes from donations. NOTE: The agency will attempt to help anyone meeting their eligibility, but sometimes funding is not available at the time the help-seeker calls.",https://tarrant.tx.networkofcare.org/pr/services/agency.aspx?pid=SocietyofStVincentdePaulSVDPFortWorthDistrictCouncilHolyFamilyConferenceBasicNeedsHolyFamilyConference_1208_19_0
0eeeb4bb-3ab8-4514-b78d-09e2a7a6ddc6,Financial Services,Gas Service Payment Assistance,SOCIETY OF ST VINCENT DE PAUL (SVDP) - FORT WORTH DISTRICT COUNCIL | OUR MOTHER OF MERCY CONFERENCE | BASIC NEEDS - OUR MOTHER OF MERCY CONFERENCE,"817-768-1950 
							Our Mother of Percey Conference",societysvdpfw@gmail.com,1001 East Terrell Avenue,Fort Worth,TX,76104,http://www.svdpfw.org/,"Financial Services, Gas Service Payment Assistance","Provides limited financial assistance for rent and utility bills based on available funding; will provide additional community resources if no funding is available. Funding availability varies as this comes from donations. NOTE: The agency will attempt to help anyone meeting their eligibility, but sometimes funding is not available at the time the help-seeker calls.",https://tarrant.tx.networkofcare.org/pr/services/agency.aspx?pid=SocietyofStVincentdePaulSVDPFortWorthDistrictCouncilOurMotherofMercyConferenceBasicNeedsOurMotherofMercyConference_1208_19_0
9835c7ba-544a-426e-8a92-6572e47fcab4,Financial Services,Gas Service Payment Assistance,SOCIETY OF ST VINCENT DE PAUL (SVDP) - FORT WORTH DISTRICT COUNCIL | ST ANDREW CONFERENCE | BASIC NEEDS - ST ANDREW CONFERENCE,"817-382-1403 
							Main Phone",societysvdpfw@gmail.com,3312 Dryden Road,Fort Worth,TX,76109,http://www.svdpfw.org/,"Financial Services, Gas Service Payment Assistance","Provides limited financial assistance for rent and utility bills based on available funding; will provide additional community resources if no funding is available. Funding availability varies as this comes from donations. NOTE: The agency will attempt to help anyone meeting their eligibility, but sometimes funding is not available at the time the help-seeker calls.",https://tarrant.tx.networkofcare.org/pr/services/agency.aspx?pid=SocietyofStVincentdePaulSVDPFortWorthDistrictCouncilStAndrewConferenceBasicNeedsStAndrewConference_1208_19_0
b47908c9-2e72-4cc7-8ccd-401c029f623b,Financial Services,Gas Service Payment Assistance,SOCIETY OF ST VINCENT DE PAUL (SVDP) - FORT WORTH DISTRICT COUNCIL | ST BARTHOLOMEW CONFERENCE | BASIC NEEDS - ST BARTHOLOMEW CONFERENCE,"817-361-8420 
							St Bartholomew Conference",societysvdpfw@gmail.com,3565 Altamesa Boulevard,Fort Worth,TX,76133,http://www.svdpfw.org/,"Financial Services, Gas Service Payment Assistance","Provides limited financial assistance for rent and utility bills based on available funding; will provide additional community resources if no funding is available. Funding availability varies as this comes from donations. NOTE: The agency will attempt to help anyone meeting their eligibility, but sometimes funding is not available at the time the help-seeker calls.",https://tarrant.tx.networkofcare.org/pr/services/agency.aspx?pid=SocietyofStVincentdePaulSVDPFortWorthDistrictCouncilStBartholomewConferenceBasicNeedsStBartholomewConference_1208_19_0
d9025788-9349-4d6a-b829-c36e6faf5bd2,Financial Services,Gas Service Payment Assistance,SOCIETY OF ST VINCENT DE PAUL (SVDP) - FORT WORTH DISTRICT COUNCIL | ST CATHERINE OF SIENA CONFERENCE | BASIC NEEDS - ST CATHERINE OF SIENA CONFERENCE,"972-480-5287 
							St Catherine of Siena Conference",societysvdpfw@gmail.com,1705 East Peters Colony Road,Carrollton,TX,75007,http://www.svdpfw.org/,"Financial Services, Gas Service Payment Assistance","Provides limited financial assistance for utility bills based on available funding; will provide additional community resources if no funding is available. Funding availability varies as this comes from donations. NOTE: The agency will attempt to help anyone meeting their eligibility, but sometimes funding is not available at the time the help-seeker calls.",https://tarrant.tx.networkofcare.org/pr/services/agency.aspx?pid=SocietyofStVincentdePaulSVDPFortWorthDistrictCouncilStCatherineofSienaConferenceBasicNeedsStCatherineofSienaConference_1208_19_0
3bdb5ceb-bd41-435d-9c6a-44a1f1a83d20,Financial Services,Gas Service Payment Assistance,SOCIETY OF ST VINCENT DE PAUL (SVDP) - FORT WORTH DISTRICT COUNCIL | ST JOSEPH CONFERENCE | BASIC NEEDS - ST JOSEPH CONFERENCE,"682-429-8231 
							St Joseph Conference",societysvdpfw@gmail.com,1927 Southwest Green Oaks Boulevard,Arlington,TX,76017,http://www.svdpfw.org/,"Financial Services, Gas Service Payment Assistance","Provides limited financial assistance for rent and utility bills based on available funding; will provide additional community resources if no funding is available. Funding availability varies as this comes from donations. NOTE: The agency will attempt to help anyone meeting their eligibility, but sometimes funding is not available at the time the help-seeker calls.",https://tarrant.tx.networkofcare.org/pr/services/agency.aspx?pid=SocietyofStVincentdePaulSVDPFortWorthDistrictCouncilStJosephConferenceBasicNeedsStJosephConference_1208_19_0
e3af8730-1824-4924-97c1-96e38b5601ce,Financial Services,Gas Service Payment Assistance,SOCIETY OF ST VINCENT DE PAUL (SVDP) - FORT WORTH DISTRICT COUNCIL | ST JUDE CONFERENCE | BASIC NEEDS - ST JUDE CONFERENCE,"682-518-0366 
							St Jude Conference",societysvdpfw@gmail.com,500 East Dallas Street,Mansfield,TX,76063,http://www.svdpfw.org/,"Financial Services, Gas Service Payment Assistance","Provides limited financial assistance for rent and utility bills based on available funding; will provide additional community resources if no funding is available. Funding availability varies as this comes from donations. NOTE: The agency will attempt to help anyone meeting their eligibility, but sometimes funding is not available at the time the help-seeker calls.",https://tarrant.tx.networkofcare.org/pr/services/agency.aspx?pid=SocietyofStVincentdePaulSVDPFortWorthDistrictCouncilStJudeConferenceBasicNeedsStJudeConference_1208_19_0
a41d1e84-2dd8-4d09-a0a7-f5ba2fa3a462,Financial Services,Gas Service Payment Assistance,SOCIETY OF ST VINCENT DE PAUL (SVDP) - FORT WORTH DISTRICT COUNCIL | ST MARIA GORETTI CONFERENCE | BASIC NEEDS - ST MARIA GORETTI CONFERENCE,"817-260-0376 
							St Maria Goretti Conference",societysvdpfw@gmail.com,1200 South Davis Drive,Arlington,TX,76013,http://www.svdpfw.org/,"Financial Services, Gas Service Payment Assistance","Provides limited financial assistance for rent and utility bills based on available funding; will provide additional community resources if no funding is available. Funding availability varies as this comes from donations. NOTE: The agency will attempt to help anyone meeting their eligibility, but sometimes funding is not available at the time the help-seeker calls.",https://tarrant.tx.networkofcare.org/pr/services/agency.aspx?pid=SocietyofStVincentdePaulSVDPFortWorthDistrictCouncilStMariaGorettiConferenceBasicNeedsStMariaGorettiConference_1208_19_0
6df7ed43-09ad-49f9-9f6a-337834e74559,Financial Services,Gas Service Payment Assistance,SOCIETY OF ST VINCENT DE PAUL (SVDP) - FORT WORTH DISTRICT COUNCIL | ST PETER THE APOSTLE CONFERENCE | BASIC NEEDS - ST PETER THE APOSTLE CONFERENCE,"817-595-6909 
							St Peter the Apostle Conference",societysvdpfw@gmail.com,1201 South Cherry Lane,White Settlement,TX,76108,http://www.svdpfw.org/,"Financial Services, Gas Service Payment Assistance","Provides limited financial assistance for rent and utility bills based on available funding; will provide additional community resources if no funding is available. Funding availability varies as this comes from donations. NOTE: The agency will attempt to help anyone meeting their eligibility, but sometimes funding is not available at the time the help-seeker calls.",https://tarrant.tx.networkofcare.org/pr/services/agency.aspx?pid=SocietyofStVincentdePaulSVDPFortWorthDistrictCouncilStPetertheApostleConferenceBasicNeedsStPetertheApostleConference_1208_19_0
f93cd9f8-b0b0-4414-b3f7-6a9767c0f703,Financial Services,Gas Service Payment Assistance,SOCIETY OF ST VINCENT DE PAUL (SVDP) - FORT WORTH DISTRICT COUNCIL | ST STEPHEN CONFERENCE | BASIC NEEDS - ST STEPHEN CONFERENCE,"682-803-0713 
							St Stephen Conference",societysvdpfw@gmail.com,1802 Bethel Road,Weatherford,TX,76086,http://www.svdpfw.org/,"Financial Services, Gas Service Payment Assistance","Provides limited financial assistance for rent and utility bills based on available funding; will provide additional community resources if no funding is available. Funding availability varies as this comes from donations. NOTE: The agency will attempt to help anyone meeting their eligibility, but sometimes funding is not available at the time the help-seeker calls.",https://tarrant.tx.networkofcare.org/pr/services/agency.aspx?pid=SocietyofStVincentdePaulSVDPFortWorthDistrictCouncilStStephenConferenceBasicNeedsStStephenConference_1208_19_0
08a351dc-43e1-4c56-bcdb-ab15086ee059,Financial Services,Gas Service Payment Assistance,SOCIETY OF ST VINCENT DE PAUL (SVDP) - FORT WORTH DISTRICT COUNCIL | ST THOMAS THE APOSTLE CONFERENCE | BASIC NEEDS - ST THOMAS THE APOSTLE CONFERENCE,"817-595-6595 
							St Thomas the Apostle Conference",societysvdpfw@gmail.com,5953 Bowman Roberts Road,Fort Worth,TX,76179,http://www.svdpfw.org/,"Financial Services, Gas Service Payment Assistance","Provides limited financial assistance for rent and utility bills based on available funding; will provide additional community resources if no funding is available. Funding availability varies as this comes from donations. NOTE: The agency will attempt to help anyone meeting their eligibility, but sometimes funding is not available at the time the help-seeker calls.",https://tarrant.tx.networkofcare.org/pr/services/agency.aspx?pid=SocietyofStVincentdePaulSVDPFortWorthDistrictCouncilStThomastheApostleConferenceBasicNeedsStThomastheApostleConference_1208_19_0
bd033657-e197-4931-a47c-af6b5ecd3eca,Financial Services,Gas Service Payment Assistance,SOCIETY OF ST VINCENT DE PAUL (SVDP) - FORT WORTH DISTRICT COUNCIL | ST VINCENT DE PAUL CONFERENCE | BASIC NEEDS - ST VINCENT DE PAUL CONFERENCE,"817-478-8206 
							Ext 401 St Vincent de Paul Conference",societysvdpfw@gmail.com,5819 West Pleasant Ridge Road,Arlington,TX,76016,http://www.svdpfw.org/,"Financial Services, Gas Service Payment Assistance","Provides limited financial assistance for rent and utility bills based on available funding; will provide additional community resources if no funding is available. Funding availability varies as this comes from donations. NOTE: The agency will attempt to help anyone meeting their eligibility, but sometimes funding is not available at the time the help-seeker calls.",https://tarrant.tx.networkofcare.org/pr/services/agency.aspx?pid=SocietyofStVincentdePaulSVDPFortWorthDistrictCouncilStVincentdePaulConferenceBasicNeedsStVincentdePaulConference_1208_19_0
010421f1-9a2f-42a5-8e34-9884631e05a7,Financial Services,Gas Service Payment Assistance,ALEDO UNITED METHODIST CHURCH | MAIN OFFICE | HELPING HANDS MONDAY - THURSDAY FOOD AND FINANCIAL ASSISTANCE,817-441-8329,info@aledoumc.com,100 Pecan Dr,Aledo,TX,76008,http://www.aledoumc.org/,"Financial Services, Gas Service Payment Assistance","Provides a food pantry with canned food items and emergency financial assistance with utilities (electric, gas, water) for residents of Parker County.Note: This agency assist with reconnection or late fees, as long as they have the bill.",https://tarrant.tx.networkofcare.org/pr/services/agency.aspx?pid=AledoUnitedMethodistChurchMainOfficeHelpingHandsMondayThursdayFoodandFinancialAssistance_1208_19_0
01ba496a-db9e-49dc-b22c-a1ce811242db,Financial Services,Gas Service Payment Assistance,MANNA STOREHOUSE | MAIN OFFICE | MON - FRI BASIC NEEDS,"817-599-6569 
							Main Phone",mannastorehouse@att.net,129 E Spring St,Weatherford,TX,76086,http://www.mannastorehouse.org/,"Financial Services, Gas Service Payment Assistance","Provides free clothing, food, furniture and household items; utility and prescription assistance.Note: The agency does not assist with deposit and reconnection or late fees.",https://tarrant.tx.networkofcare.org/pr/services/agency.aspx?pid=MannaStorehouseMainOfficeMonFriBasicNeeds_1208_19_0
e9891c02-296b-4a2a-8067-2626c79df703,Financial Services,Gas Service Payment Assistance,PECAN VALLEY CENTERS FOR BEHAVIORAL AND DEVELOPMENTAL HEALTHCARE | ADMINISTRATION OFFICE | BASIC NEEDS FOR VETERANS,"817-579-4489 
							Main Phone",jmorrison@pecanvalley.org,2101 West Pearl Street,Granbury,TX,76048,https://www.pecanvalley.org/,"Financial Services, Gas Service Payment Assistance","Provides financial assistance for veterans that includes rent, utilities (gas, water, electricity), phone, dental restoration (Fillings, crowns, dentures, bridges, implants), and counseling available for individual, group, and family.",https://tarrant.tx.networkofcare.org/pr/services/agency.aspx?pid=PecanValleyCentersforBehavioralandDevelopmentalHealthCareAdministrationOfficeBasicNeedsforVeterans_1208_19_0
fd8aa078-11fd-48f3-adfd-335d0445edc3,Financial Services,Gas Service Payment Assistance,ARBORLAWN UNITED METHODIST CHURCH | MAIN OFFICE | EMERGENCY ASSISTANCE,"817-921-5224 
							Assistance Line",office@arborlawnumc.org,5001 Briarhaven Road,Fort Worth,TX,76109,http://arborlawnumc.org/,"Financial Services, Gas Service Payment Assistance","Provides limited financial assistance ($100 limit) for utilities ONE TIME ONLY to eligible households.Note: The agency does provide assistance with deposit, reconnection or late fees on a case by case basis.",https://tarrant.tx.networkofcare.org/pr/services/agency.aspx?pid=ArborlawnUnitedMethodistChurchMainOfficeEmergencyAssistance_1208_19_0
121302db-4cfc-40b0-978c-e7facb3b8011,Financial Services,Gas Service Payment Assistance,WISE AREA RELIEF MISSION | MAIN OFFICE | FINANCIAL ASSISTANCE,"940-626-4676 
							Main Phone",warm@warmtx.org,300 N Trinity St,Decatur,TX,76234,http://warmtx.org/services.aspx,"Financial Services, Gas Service Payment Assistance","Provides financial assistance to eligible families for utilities (electricity, water, and propane/natural gas). Also assists with emergency prescription and tooth extraction.Note: The agency does not assist with deposits and reconnection fees, but they may be able to assist with late fees.",https://tarrant.tx.networkofcare.org/pr/services/agency.aspx?pid=WiseAreaReliefMissionMainOfficeFinancialAssistance_1208_19_0
3b986e82-b5eb-48e8-900c-55c1a56c534b,Financial Services,Gas Service Payment Assistance,MISSION ARLINGTON/MISSION METROPLEX | ARLINGTON SITE | FINANCIAL ASSISTANCE,"817-277-6620 
							Main Phone",mission@missionarlington.org,210 West South Street,Arlington,TX,76010,https://missionarlington.org/emergency-assistance/,"Financial Services, Gas Service Payment Assistance","Provides help with partial rent and utilities (electricity, water, gas, etc.) payments. Note: The agency assists with Reliant Customers, among other electric providers. Offers help with medications; On a limited basis, a portion of a prescription cost is paid. client has to pay at least half of the rent or utility bill.
NOTE: Wait time may be extensive depending upon how many people are waiting in the lobby.",https://tarrant.tx.networkofcare.org/pr/services/agency.aspx?pid=MissionArlingtonMissionMetroplexArlingtonSiteFinancialAssistance_1208_19_0
54a46359-ad9c-4d2e-ab37-3b8b07d7d9c6,Financial Services,Gas Service Payment Assistance,HARVEST HOUSE | MAIN OFFICE | BASIC NEEDS ASSISTANCE,"817-295-6252 
							Main Phone",harvest@yourharvesthouse.org,349 Northwest Renfro Street,Burleson,TX,76028,https://www.yourharvesthouse.org/required-document-financial-assistance,"Financial Services, Gas Service Payment Assistance",Provides rent and utility assistance.,https://tarrant.tx.networkofcare.org/pr/services/agency.aspx?pid=HarvestHouseMainOfficeBasicNeedsAssistance_1208_19_0
32a5edb6-56f2-4768-b90e-4767337be62e,Financial Services,Gas Service Payment Assistance,PARKER COUNTY CENTER OF HOPE | PARKER COUNTY CENTER OF HOPE | FINANCIAL ASSISTANCE,"817-594-0266 
							Main Phone",info@centerofhopetx.com,1318 Clear Lake Road,Weatherford,TX,76086,http://centerofhopetx.com/crisis-assistance/,"Financial Services, Gas Service Payment Assistance","Provides limited financial assistance with utilities, prescriptions, and medical copay.Note: The agency does not assist with deposit, reconnection fees, or late fees.",https://tarrant.tx.networkofcare.org/pr/services/agency.aspx?pid=ParkerCountyCenterofHopeParkerCountyCenterofHopeFinancialAssistance_1208_19_0
48a37c66-58bc-4a30-ac72-59f024eca6e3,Financial Services,Gas Service Payment Assistance,MINERAL WELLS CENTER OF LIFE | MAIN OFFICE | UTILITY ASSISTANCE,"940-327-8700 
							Main Phone",info@mwcol.org,200 SW 5th St,Mineral Wells,TX,76067,http://mwcol.org/services,"Financial Services, Gas Service Payment Assistance","Provides utility assistance that includes electric, water, and gas bill to low-income families who are struggling with a temporary crisis.Note: The agency does not assist with deposit, reconnection fees, or late fees.",https://tarrant.tx.networkofcare.org/pr/services/agency.aspx?pid=MineralWellsCenterofLifeMainOfficeUtilityAssistance_1208_19_0
a2d15ff5-69b9-4eda-a50c-0bdfbbbafb39,Financial Services,Gas Service Payment Assistance,SAINT VINCENT DE PAUL ST. JUDE CONFERENCE | ST THOMAS HALL | UTILITY ASSISTANCE,"817-595-6511 
							Main Phone",stjudesvdp500@yahoo.com,310 Graves Street,Mansfield,TX,76063,http://stjudecc.org/,"Financial Services, Gas Service Payment Assistance","Provides financial assistance for utility bills (electric, gas and water) for eligible households.",https://tarrant.tx.networkofcare.org/pr/services/agency.aspx?pid=SaintVincentdePaulStJudeConferenceStThomasHallUtilityAssistance_1208_19_0
5ba9afa4-6153-43e0-9992-28b5dd56621c,Financial Services,Gas Service Payment Assistance,WESTHILL CHURCH OF CHRIST | BRIDGE CENTER | FINANCIAL MINISTRY,"817-645-9193 
							Main Phone",office@westhillchurch.net,401 E Henderson St,Cleburne,TX,76031,http://westhillchurch.net/outreach/the-bridge,"Financial Services, Gas Service Payment Assistance","Offers financial assistance for prescriptions, utilities (electric, water and gas) as well as gasoline, depending on availability of funds.Note: The agency does not assist with deposit, reconnection or late fees; Usage only.",https://tarrant.tx.networkofcare.org/pr/services/agency.aspx?pid=WesthillChurchofChristBridgeCenterFinancialMinistry_1208_19_0
183bc245-1ac4-4fe7-9607-4542d090daab,Financial Services,Gas Service Payment Assistance,MANSFIELD MISSION CENTER | MISSION CENTER | SUPPORTIVE SERVICES,"817-473-6611 
							Mission Center",info@mansfieldmission.org,703 E Broad St,Mansfield,TX,76063,https://www.mansfieldmission.org/services,"Financial Services, Gas Service Payment Assistance","Provides Employment Services include job training and/or certifications for in-demand jobs, employment workshops and assistance with job search, mock interviews, resume writing, and financial coaching. Scholarships for certifications are also available.Offers adults Support with utility, and assistance with application for state benefits such as SNAP, Medicaid, CHIP, and TANF. Note: The agency does not assist with deposit or reconnection or late fees. By making this referral, we know you fit the basic eligibility for this service. However, the referral to this agency is not a guarantee of assistance.",https://tarrant.tx.networkofcare.org/pr/services/agency.aspx?pid=MansfieldMissionCenterMissionCenterSupportiveServices_1208_19_0
