ID,Category,Subcategory,Organization Name,Phone,Email,Address,City,State,Zip,Website,Keywords,Description,Source
2a2542ee-2c7d-4edf-addc-1aaa61f39ebf,Social Services,Food Pantries,BREAD BASKET MINISTRIES | MAIN CAMPUS | 2ND & 4TH TUES FOOD PANTRY,"817-307-4092 
							Alternate Phone",mark@breadbasketministries.org,2809 Mansfield Hwy,Fort Worth,TX,76119,http://www.breadbasketministries.org/read-me,"Social Services, Food Pantries",Provides an emergency and supplemental food pantry every two weeks for Older Adults 60+ and/or individuals with disabilities ONLY.,https://tarrant.tx.networkofcare.org/pr/services/agency.aspx?pid=BreadBasketMinistriesMainCampus2nd4thTuesFoodPantry_1208_19_0
236db118-b57b-45be-bbb8-0eac0eb29e62,Social Services,Food Pantries,MISSION GRANBURY | RESOURCE CENTER | TUES & THURS MORNING FOOD PANTRY,"817-579-6866 
							Main Phone",,,,,,http://www.missiongranbury.org/food-pantry-emergency-assistance,"Social Services, Food Pantries",Provides weekly food distribution to qualifying clients and emergency food distribution to families in crisis situations.,https://tarrant.tx.networkofcare.org/pr/services/agency.aspx?pid=MissionGranburyResourceCenterTuesThursMorningFoodPantry_1208_19_0
9870aebe-5d83-4144-867d-0dc2a75b74d4,Social Services,Food Pantries,ALVARADO HELPING HANDS FOR JESUS (AHH4J) | ALVARADO HELPING HANDS FOR JESUS | DRIVE THROUGH FOOD ASSISTANCE,"817-783-2701 
							Main Phone",hh4jesus@gmail.com,404 North Parkway Drive,Alvarado,TX,76009,http://www.alvaradohelpinghands.com/,"Social Services, Food Pantries",Provides food to low-income families.,https://tarrant.tx.networkofcare.org/pr/services/agency.aspx?pid=AlvaradoHelpingHandsforJesusAHH4JAlvaradoHelpingHandsforJesusDriveThroughFoodAssistance_1208_19_0
a4ed3b8f-5cfe-4377-900f-4fbc8200d6bc,Social Services,Food Pantries,COMMUNITY ENRICHMENT CENTER (CEC) | MAIN OFFICE | MON - FRI FOOD SERVICES,"817-281-1164 
							Main Phone",info@cechope.org,6250 NE Loop 820,North Richland Hills,TX,76180,https://cechope.org/food-support/,"Social Services, Food Pantries",Provides direct aid food services and crisis assessment. senior adults 65 and older can receive food two times a month. Program participants can access it up to 4 times a month.,https://tarrant.tx.networkofcare.org/pr/services/agency.aspx?pid=CommunityEnrichmentCenterCECMainOfficeMonFriFoodServices_1208_19_0
460eef80-b7f7-4a6c-af65-7f2fd725aaca,Social Services,Food Pantries,H.O.P.E. (HELPING OTHER PEOPLE EFFECTIVELY) | MAIN OFFICE | MON - FRI FOOD PANTRY,"254-965-2700 
							Main Phone",hope9652700@gmail.com,1617 East Washington Street,Stephenville,TX,76401,http://www.hopestephenville.com/,"Social Services, Food Pantries","Provides food, clothing and limited financial assistance (depending on availability of funds) for rent and utilities. Sponsors medical and dental clinics for qualified patients.By making this referral, we know you fit the basic eligibility for this service. However, the referral to this agency is not a guarantee of assistance.",https://tarrant.tx.networkofcare.org/pr/services/agency.aspx?pid=HOPEHelpingOtherPeopleEffectivelyMainOfficeMonFriFoodPantry_1208_19_0
15fe95c9-ddfa-4b86-8090-9a2c5efa3355,Social Services,Food Pantries,NORTH EAST EMERGENCY DISTRIBUTION (NEED) | NEED WEST | FOOD PANTRY,"817-759-1506 
							Main Phone",,5028 Broadway Ave,Haltom City,TX,76117,https://needdfw.org/n-e-e-d-west/,"Social Services, Food Pantries",Provides a food pantry to individuals in need of food.,https://tarrant.tx.networkofcare.org/pr/services/agency.aspx?pid=NorthEastEmergencyDistributionNEEDNEEDWestFoodPantry_1208_19_0
1c28c534-ea72-4c0c-9561-5005cec2f50e,Social Services,Food Pantries,"PEOPLE HELPING PEOPLE (PHP) | MAIN OFFICE | MON, TUES, THURS BASIC NEEDS","817-573-7801 
							Main Phone",Director@granburyphp.org,306 Kings Plz,Granbury,TX,76049,http://granburyphp.org/,"Social Services, Food Pantries","Provides food, clothing, and toiletries packages that include shampoo, toothbrushes, toothpaste and cosmetic items once a month. Pet supplies provided when available.",https://tarrant.tx.networkofcare.org/pr/services/agency.aspx?pid=PeopleHelpingPeoplePHPMainOfficeMonTuesThursBasicNeeds_1208_19_0
62c35801-2034-458b-9a22-ac2483d661d0,Social Services,Food Pantries,"SOCIETY OF ST VINCENT DE PAUL (SVDP) - FORT WORTH DISTRICT COUNCIL | ST BARTHOLOMEW CONFERENCE | MON, WED, FRI FOOD PANTRY - ST BARTHOLOMEW CONFERENCE","817-361-8420 
							St Bartholomew Conference",,3565 Altamesa Boulevard,Fort Worth,TX,76133,http://www.svdpfw.org/,"Social Services, Food Pantries",Provides a food pantry for anyone residing in the service area.,https://tarrant.tx.networkofcare.org/pr/services/agency.aspx?pid=SocietyofStVincentdePaulSVDPFortWorthDistrictCouncilStBartholomewConferenceMonWedFriFoodPantryStBartholomewConference_1208_19_0
d8e5e6ac-3e4b-4abb-aad4-933b6377b88c,Social Services,Food Pantries,"SOCIETY OF ST VINCENT DE PAUL (SVDP) - FORT WORTH DISTRICT COUNCIL | ST JUDE CONFERENCE | WED, SAT FOOD PANTRY MANSFIELD ISD - ST JUDE CONFERENCE","682-518-0366 
							St Jude Conference",,500 East Dallas Street,Mansfield,TX,76063,http://www.svdpfw.org/assistance/,"Social Services, Food Pantries",Provides a food pantry to anyone residing in the service area.,https://tarrant.tx.networkofcare.org/pr/services/agency.aspx?pid=SocietyofStVincentdePaulSVDPFortWorthDistrictCouncilStJudeConferenceWedSatFoodPantryMansfieldISDStJudeConference_1208_19_0
e0b89f80-5203-454b-be2a-ae0846e9faf3,Social Services,Food Pantries,ALEDO UNITED METHODIST CHURCH | MAIN OFFICE | HELPING HANDS MONDAY - THURSDAY FOOD AND FINANCIAL ASSISTANCE,817-441-8329,info@aledoumc.com,100 Pecan Dr,Aledo,TX,76008,http://www.aledoumc.org/,"Social Services, Food Pantries","Provides a food pantry with canned food items and emergency financial assistance with utilities (electric, gas, water) for residents of Parker County.Note: This agency assist with reconnection or late fees, as long as they have the bill.",https://tarrant.tx.networkofcare.org/pr/services/agency.aspx?pid=AledoUnitedMethodistChurchMainOfficeHelpingHandsMondayThursdayFoodandFinancialAssistance_1208_19_0
b72a2921-5e3b-4cf1-8136-9576f4d15427,Social Services,Food Pantries,BROADWAY BAPTIST CHURCH | COMMUNITY CENTER | MON - FRI FOOD PANTRY,"817-336-5761 
							Main Phone",,305 West Broadway Avenue,Fort Worth,TX,76104,http://broadwaybc.org/,"Social Services, Food Pantries",Provides a food pantry to anyone in the community.,https://tarrant.tx.networkofcare.org/pr/services/agency.aspx?pid=BroadwayBaptistChurchCommunityCenterMonFriFoodPantry_1208_19_0
02a483d4-8fda-43da-9345-2a53c85542fa,Social Services,Food Pantries,COMMUNITY FOOD BANK | MAIN OFFICE | MON - THURS MORNINGS FOOD PANTRY,"817-924-3333 
							Main Phone",,3000 Galvez Ave,Fort Worth,TX,76111,http://food-bank.org/,"Social Services, Food Pantries","Offers a food pantry including non-perishable food as well as perishable items such as fresh and frozen meat, produce, and dairy. When available, offers basic need items that may include adult/children clothing, adult/baby diapers, personal/grooming supplies, blankets, and pet food.",https://tarrant.tx.networkofcare.org/pr/services/agency.aspx?pid=CommunityFoodBankMainOfficeMonThursMorningsFoodPantry_1208_19_0
a784622f-fcfc-4f51-8bf3-1aa231dffb58,Social Services,Food Pantries,AZLE COMMUNITY CARING CENTER | COMMUNITY CARING CENTER | MON - FRI FOOD PANTRY,"817-270-2962 
							Main Phone Number",azle.ccc@verizon.net,317 Commerce St,Azle,TX,76020,https://communitycaringcenter.com/contact/,"Social Services, Food Pantries",Provides assistance with food.,https://tarrant.tx.networkofcare.org/pr/services/agency.aspx?pid=AzleCommunityCaringCenterCommunityCaringCenterMonFriFoodPantry_1208_19_0
de4f2a51-4cae-4cd7-b429-8da019abad22,Social Services,Food Pantries,EASTSIDE MINISTRIES OF FORT WORTH | EASTSIDE MINISTRIES | MON - FRI BASIC NEEDS,"817-446-3278 
							Main",eastsideministries@yahoo.com,5929 E Lancaster Ave,Fort Worth,TX,76112,http://eastsidecommunityassistance.org/,"Social Services, Food Pantries","Provides emergency food (including baby food), pet food, supplemental food for disabled/elderly, hygiene supplies, and diapers. No financial aid available.",https://tarrant.tx.networkofcare.org/pr/services/agency.aspx?pid=EastsideMinistriesofFortWorthEastsideMinistriesMonFriBasicNeeds_1208_19_0
d9c339d9-3908-42ad-a4fd-e93e7b33e331,Social Services,Food Pantries,ARLINGTON CHARITIES | ARLINGTON OFFICE | MON - FRI FOOD ASSISTANCE,817-275-1511,info@arlingtoncharities.org,811 Secretary Drive,Arlington,TX,76015,http://www.arlingtoncharities.org/mobile-pantries,"Social Services, Food Pantries","Provides supplemental food for those in need. Families can come twice a month to drive-thru pantry.Delivery program also available for the elderly and/or disabled. No financial or utility assistance. Also provides case management services for agency clients.Any persons that connects with a shelter/partnering agency is entered into a shared information system that is managed by the Housing Related Coordinated Entry Lead Agency, and there are multiple access points. NOTE: This agency is an access point.",https://tarrant.tx.networkofcare.org/pr/services/agency.aspx?pid=ArlingtonCharitiesArlingtonOfficeMonFriFoodAssistance_1208_19_0
0218b765-ab22-486e-810b-917fe364d776,Social Services,Food Pantries,"CROWLEY HOUSE OF HOPE AND MEDICAL CLINIC | FOOD PANTRY | 3RD THURS FAMILY, 1ST TUES SENIORS, MON, WED - FRI, 3RD SAT FOOD PANTRY","817-297-6400 
							Main Phone",ellie@crowleyhoh.org,200 N Magnolia St,Crowley,TX,76036,http://crowleyhouseofhope.org/direct-aid,"Social Services, Food Pantries",Provides food assistance for individuals and families. Food assistance is available one-time each month during service hours.,https://tarrant.tx.networkofcare.org/pr/services/agency.aspx?pid=CrowleyHouseofHopeandMedicalClinicFoodPantry3rdThursFamily1stTuesSeniorsMonWedFri3rdSatFoodPantry_1208_19_0
988657ef-ff15-4c50-8106-75b4359d5dc2,Social Services,Food Pantries,FIRST BAPTIST CHURCH - BRIDGEPORT | CHURCH | MON FOOD PANTRY,"940-683-4037 
							Main Phone",,1204 12th St,Bridgeport,TX,76426,https://www.fbcbridgeport.com/ministries/food-pantry,"Social Services, Food Pantries",Provides a food pantry for individuals in need of food.,https://tarrant.tx.networkofcare.org/pr/services/agency.aspx?pid=FirstBaptistChurchBridgeportChurchMonFoodPantry_1208_19_0
553ec50a-7c1b-4d80-8ad1-4f8ac4472c38,Social Services,Food Pantries,FIRST BAPTIST CHURCH - CASTLE HILLS | MISSION HOUSE | 3RD THURS FOOD PANTRY,"817-237-7086 
							Main Phone",wanda@mealtimepartners.com,401 Beverly Rd,Azle,TX,76020,https://www.chbcazle.com/Home,"Social Services, Food Pantries","Provides food assistance through a food pantry on the third Thursday of each month. Some frozen & fresh perishables provided depending on donations. Also provides emergency help throughout the month, as needed.",https://tarrant.tx.networkofcare.org/pr/services/agency.aspx?pid=FirstBaptistChurchCastleHillsMissionHouse3rdThursFoodPantry_1208_19_0
b54d1bc5-4bfc-4206-9320-a38343bcc65f,Social Services,Food Pantries,"FIRST BAPTIST CHURCH - EVERMAN | MAIN OFFICE | 1ST, 3RD, AND 5TH MON FOOD PANTRY","817-293-1694 
							Main Phone",church@firsteverman.org,501 West Barron Avenue,Everman,TX,76140,http://www.facebook.com/firsteverman,"Social Services, Food Pantries",Operates a food pantry for anyone in need. Assistance is given once every six months per household.,https://tarrant.tx.networkofcare.org/pr/services/agency.aspx?pid=FirstBaptistChurchEvermanMainOffice1st3rdand5thMonFoodPantry_1208_19_0
333f21a0-6d2d-407d-88e3-da4c08a73218,Social Services,Food Pantries,FIRST METHODIST CHURCH - BRIDGEPORT | CHURCH | 2ND THURS FOOD PANTRY EXPRESS,"940-683-2780 
							Main Phone",fumcbridgeport@fumcbridgeport.org,608 17th Street,Bridgeport,TX,76426,http://www.fumcbridgeport.org/serve/serve-through-missions/food-pantry-bridgeport-tx/,"Social Services, Food Pantries",Provides fresh food to anyone in need. Provides assistance once a month.,https://tarrant.tx.networkofcare.org/pr/services/agency.aspx?pid=FirstMethodistChurchBridgeportChurch2ndThursFoodPantryExpress_1208_19_0
8606725c-dcca-4a4e-8c43-af7b8e19419d,Social Services,Food Pantries,FIRST METHODIST CHURCH - BRIDGEPORT | CHURCH | MON - FRI FOOD PANTRY,"940-683-2780 
							Main Phone",fumcbridgeport@fumcbridgeport.org,608 17th Street,Bridgeport,TX,76426,http://www.fumcbridgeport.org/serve/serve-through-missions/food-pantry-bridgeport-tx/,"Social Services, Food Pantries",Operates a non-perishable food pantry for Wise County residents. Assistance can only be requested once per month.,https://tarrant.tx.networkofcare.org/pr/services/agency.aspx?pid=FirstMethodistChurchBridgeportChurchMonFriFoodPantry_1208_19_0
48a2e958-acf4-4d27-92bf-38e7909d5692,Social Services,Food Pantries,FIRST UNITED METHODIST CHURCH - DECATUR | MAIN OFFICE | 1ST SAT MOBILE FOOD PANTRY,"940-627-3362 
							Main Phone",info@decaturmethodist.org,104 South Miller Street,Decatur,TX,76234,http://www.decaturmethodist.org/,"Social Services, Food Pantries",Provides a mobile food pantry for Wise County residents.,https://tarrant.tx.networkofcare.org/pr/services/agency.aspx?pid=FirstUnitedMethodistChurchDecaturMainOffice1stSatMobileFoodPantry_1208_19_0
ae30f210-69e7-43d0-9e2b-b10ce518b265,Social Services,Food Pantries,JOSEPHS LOCKER | GRANBURY CENTER | MON - THURS FOOD/CLOTHING MINISTRY,"817-579-1446 
							Main Phone",Jospehs.locker@yahoo.com,708 Paluxy Road,Granbury,TX,76048,http://www.josephslocker.org/,"Social Services, Food Pantries","Provides assistance with basic necessities of food, clothing and household supplies (i.e. toaster, microwave and other kitchenware).",https://tarrant.tx.networkofcare.org/pr/services/agency.aspx?pid=JosephsLockerGranburyCenterMonThursFoodClothingMinistry_1208_19_0
85e9b0e5-e641-4376-b24b-2f9e275e2251,Social Services,Food Pantries,MANNA STOREHOUSE | MAIN OFFICE | MON - FRI BASIC NEEDS,"817-599-6569 
							Main Phone",mannastorehouse@att.net,129 E Spring St,Weatherford,TX,76086,http://www.mannastorehouse.org/,"Social Services, Food Pantries","Provides free clothing, food, furniture and household items; utility and prescription assistance.Note: The agency does not assist with deposit and reconnection or late fees.",https://tarrant.tx.networkofcare.org/pr/services/agency.aspx?pid=MannaStorehouseMainOfficeMonFriBasicNeeds_1208_19_0
e578d642-2a83-4668-99e8-80c0b53e038a,Social Services,Food Pantries,PARKER COUNTY CENTER OF HOPE | PARKER COUNTY CENTER OF HOPE | MON - THURS FOOD PANTRY AND SOUP KITCHEN,"817-594-0266 
							Main Phone",info@centerofhopetx.com,1318 Clear Lake Road,Weatherford,TX,76086,,"Social Services, Food Pantries",Provides a food pantry with perishable and non-perishable items and a soup kitchen serving prepared food/meals in dining room on site.,https://tarrant.tx.networkofcare.org/pr/services/agency.aspx?pid=ParkerCountyCenterofHopeParkerCountyCenterofHopeMonThursFoodPantryandSoupKitchen_1208_19_0
bfc6e890-f97f-4b2f-8f12-c4e64f85cd9f,Social Services,Food Pantries,MISSION ARLINGTON/MISSION METROPLEX | ARLINGTON SITE | MON - SAT FOOD PANTRY,"817-277-6620 
							Main Phone",mission@missionarlington.org,210 West South Street,Arlington,TX,76010,http://missionarlington.org/emergency-assistance/,"Social Services, Food Pantries","Provides short-term supplies of groceries designed to last for several days, based on family size; formula and baby food might be also available.",https://tarrant.tx.networkofcare.org/pr/services/agency.aspx?pid=MissionArlingtonMissionMetroplexArlingtonSiteMonSatFoodPantry_1208_19_0
9d2134b5-0a10-4369-8f10-b2aa31ee9a8d,Social Services,Food Pantries,MISSION CENTRAL METROPLEX | MAIN OFFICE | TUE - FRI VILLAGE FOOD PANTRY,"817-595-0011 
							Main Phone",info@missioncentraltx.org,740 East Pipeline Road,Hurst,TX,76053,http://missioncentraltx.org/,"Social Services, Food Pantries","Provides a food pantry to residents in HEB that includes canned and baked goods, fresh produce, poultry, and toiletries.This agency does not offer direct financial assistance of any kind.",https://tarrant.tx.networkofcare.org/pr/services/agency.aspx?pid=MissionCentralMetroplexMainOfficeTueFriVillageFoodPantry_1208_19_0
c67d145f-4ddb-4f27-a8ea-a2e7c939d1c3,Social Services,Food Pantries,NEW HAVEN MINISTRIES | HELPING HANDS | MON - FRI FOOD PANTRY,"940-452-1784 
							Main Phone",foodbank@newhavenministries.net,115 Southwest 3rd Street,Mineral Wells,TX,76067,http://www.newhavenministries.net/helping-hands,"Social Services, Food Pantries",Provides a food pantry and clothing.,https://tarrant.tx.networkofcare.org/pr/services/agency.aspx?pid=NewHavenMinistriesHelpingHandsMonFriFoodPantry_1208_19_0
17599b7d-a577-482c-8d2d-bdb126fceada,Social Services,Food Pantries,"SALVATION ARMY - ARLINGTON | FAMILY LIFE CENTER | THURS FOOD PANTRY AND THURS, SAT EVENING SOUP KITCHEN","817-860-1836 
							Main Phone",,712 West Abram Street,Arlington,TX,76013,https://salvationarmyntx.org/north-texas/arlington/,"Social Services, Food Pantries",Offers a soup kitchen and food pantry with non-perishable food.,https://tarrant.tx.networkofcare.org/pr/services/agency.aspx?pid=SalvationArmyArlingtonFamilyLifeCenterThursFoodPantryandThursSatEveningSoupKitchen_1208_19_0
927fdd42-4744-4190-8cea-2c54ff54986a,Social Services,Food Pantries,SALVATION ARMY | CARR P COLLINS SOCIAL SERVICES CENTER - DALLAS | DRIVE THRU FOOD DISTRIBUTION,"817-344-1800 
							Main Phone",,5302 Harry Hines Blvd,Dallas,TX,75235,http://salvationarmyntx.org/north-texas/cure-hunger,"Social Services, Food Pantries",Provides drive-thru food distribution.,https://tarrant.tx.networkofcare.org/pr/services/agency.aspx?pid=SalvationArmyCarrPCollinsSocialServicesCenterDallasDriveThruFoodDistribution_1208_19_0
2542b5a5-4531-401a-96f6-3b4e5384aaad,Social Services,Food Pantries,SALVATION ARMY - JOHNSON COUNTY | CLEBURNE SERVICE CENTER | MON - FRI FOOD PANTRY,"817-558-1296 
							Main Phone",elizabeth.aranguren@uss.salvationarmy.org,111 South Anglin Street,Cleburne,TX,76031,http://salvationarmytexas.org/,"Social Services, Food Pantries",Provides curb-side service food pantry for Johnson County residents in need.,https://tarrant.tx.networkofcare.org/pr/services/agency.aspx?pid=SalvationArmyJohnsonCountyCleburneServiceCenterMonFriFoodPantry_1208_19_0
92d605d0-0157-44da-9b8e-73d8f78bc80f,Social Services,Food Pantries,SALVATION ARMY | MABEE SOCIAL SERVICES CENTER - FORT WORTH | DRIVE THRU FOOD DISTRIBUTION,"817-344-1800 
							Main Phone",,1855 East Lancaster Avenue,Fort Worth,TX,76103,http://salvationarmyntx.org/north-texas/cure-hunger,"Social Services, Food Pantries",Provides drive-thru food distribution.,https://tarrant.tx.networkofcare.org/pr/services/agency.aspx?pid=SalvationArmyMabeeSocialServicesCenterFortWorthDriveThruFoodDistribution_1208_19_0
25985668-95f0-4f09-a14e-ded94eb5681d,Social Services,Food Pantries,SALVATION ARMY | MABEE SOCIAL SERVICES CENTER - FORT WORTH | WED FOOD PANTRY,"817-344-1800 
							Front Reception",,1855 East Lancaster Avenue,Fort Worth,TX,76103,https://salvationarmyntx.org/north-texas/cure-hunger,"Social Services, Food Pantries",Provides a food pantry for those in need. Services are provided per household every 90 days.,https://tarrant.tx.networkofcare.org/pr/services/agency.aspx?pid=SalvationArmyMabeeSocialServicesCenterFortWorthWedFoodPantry_1208_19_0
5db07474-7069-454b-b182-1f0bcd9b7dd8,Social Services,Food Pantries,SALVATION ARMY | OAK CLIFF CORPS COMMUNITY CENTER - DALLAS | DRIVE THRU FOOD DISTRIBUTION,"817-344-1800 
							Main Phone",,1617 W Jefferson Blvd,Dallas,TX,75208,http://salvationarmyntx.org/north-texas/cure-hunger,"Social Services, Food Pantries",Provides drive-thru food distribution.,https://tarrant.tx.networkofcare.org/pr/services/agency.aspx?pid=SalvationArmyOakCliffCorpsCommunityCenterDallasDriveThruFoodDistribution_1208_19_0
f7504568-a41b-4127-a81f-1bb4645a631d,Social Services,Food Pantries,SALVATION ARMY | PLEASANT GROVE CORPS COMMUNITY CENTER - DALLAS | DRIVE THRU FOOD DISTRIBUTION,"817-344-1800 
							Main Phone",,8341 Elam Rd,Dallas,TX,75217,http://salvationarmyntx.org/north-texas/cure-hunger,"Social Services, Food Pantries",Provides drive-thru food distribution.,https://tarrant.tx.networkofcare.org/pr/services/agency.aspx?pid=SalvationArmyPleasantGroveCorpsCommunityCenterDallasDriveThruFoodDistribution_1208_19_0
eff159db-d223-4a15-9dbe-7f4c57a53705,Social Services,Food Pantries,ST JOHN THE APOSTLE CATHOLIC CHURCH | MAIN SITE | MON - THURS FOOD PANTRY,"817-284-5912 
							Main Phone",,7337 Glenview Dr,North Richland Hills,TX,76180,http://sjtanrh.com/social-ministry,"Social Services, Food Pantries",Provides food to residents of the designated service area. Basic canned food items and other donated items such as toiletries are available once a month.,https://tarrant.tx.networkofcare.org/pr/services/agency.aspx?pid=StJohntheApostleCatholicChurchMainSiteMonThursFoodPantry_1208_19_0
7cd67af8-bba9-402f-9849-688dfcb06e85,Social Services,Food Pantries,UNITED COMMUNITY CENTERS | BETHLEHEM CENTER | MON - FRI FOOD PANTRY- BETHLEHEM CENTER,"817-332-7911 
							Main Phone",info@unitedcommunitycenters.org,951 Evans Avenue,Fort Worth,TX,76104,http://www.unitedcommunitycenters.org/meal-programs,"Social Services, Food Pantries",Provides a food pantry and seasonal assistance for Thanksgiving and Christmas and referrals to other agencies as needed.,https://tarrant.tx.networkofcare.org/pr/services/agency.aspx?pid=UnitedCommunityCentersBethlehemCenterMonFriFoodPantryBethlehemCenter_1208_19_0
6e5095e0-9de2-4d52-9052-cf21826cbfc9,Social Services,Food Pantries,UNITED COMMUNITY CENTERS | POLYTECHNIC CENTER | MON - FRI FOOD PANTRY- POLYTECHINC CENTER,"817-531-2803 
							Main Phone",info@unitedcommunitycenters.org,3100 Avenue I,Fort Worth,TX,76105,https://www.unitedcommunitycenters.org/meal-programs,"Social Services, Food Pantries",Provides a food pantry and seasonal assistance for Thanksgiving and Christmas and referrals to other agencies as needed.,https://tarrant.tx.networkofcare.org/pr/services/agency.aspx?pid=UnitedCommunityCentersPolytechnicCenterMonFriFoodPantryPolytechincCenter_1208_19_0
02d7c325-ac42-4b79-a30f-793574ab7955,Social Services,Food Pantries,UNITED COMMUNITY CENTERS | WESLEY CENTER | MON - FRI FOOD PANTRY- WESLEY CENTER,"817-625-8205 
							Main Phone",info@unitedcommunitycenters.org,3600 North Crump Street,Fort Worth,TX,76106,http://www.unitedcommunitycenters.org/meal-programs,"Social Services, Food Pantries",Provides a food pantry and seasonal assistance for Thanksgiving and Christmas and referrals to other agencies as needed.,https://tarrant.tx.networkofcare.org/pr/services/agency.aspx?pid=UnitedCommunityCentersWesleyCenterMonFriFoodPantryWesleyCenter_1208_19_0
fd55afef-2bb6-4327-a6e9-fe468642a5be,Social Services,Food Pantries,WISE AREA RELIEF MISSION | MAIN OFFICE | FOOD PANTRY TUESDAY - FRIDAY,"940-626-4676 
							Main Phone",warm@warmtx.org,300 N Trinity St,Decatur,TX,76234,http://www.warmtx.org/services.aspx,"Social Services, Food Pantries",Provides a food pantry.,https://tarrant.tx.networkofcare.org/pr/services/agency.aspx?pid=WiseAreaReliefMissionMainOfficeFoodPantryTuesdayFriday_1208_19_0
b248ce7b-bb1e-4f8f-998c-59ab1ccf1920,Social Services,Food Pantries,"MISSION STORE, THE | FIRST UNITED METHODIST CHURCH OF KENNEDALE | 1ST AND 3RD TUE FOOD PANTRY","817-478-5811 
							FUMC Kennedale",kennedalesecretary@sbcglobal.net,229 W 4th St,Kennedale,TX,76060,http://www.facebook.com/TheMissionStore,"Social Services, Food Pantries",Provides a food pantry twice a month for anyone in need.,https://tarrant.tx.networkofcare.org/pr/services/agency.aspx?pid=MissionStoreTheFirstUnitedMethodistChurchofKennedale1stand3rdTueFoodPantry_1208_19_0
6b5d12e9-eea4-4c8d-af9c-f3dd8ce7569e,Social Services,Food Pantries,"RIVER OAKS FOOD PANTRY | MAIN OFFICE | 1ST, 3RD, 4TH, 5TH THURS AND 2ND SAT FOOD PANTRY","817-625-6281 
							Main Phone",riveroaksumc@yahoo.com,4800 Ohio Garden Road,River Oaks,TX,76114,http://riveroaksfoodpantry.com/,"Social Services, Food Pantries",Provides food assistance on Thursday - no financial assistance available.,https://tarrant.tx.networkofcare.org/pr/services/agency.aspx?pid=RiverOaksFoodPantryMainOffice1st3rd4th5thThursand2ndSatFoodPantry_1208_19_0
8d35f14c-f8fb-4885-9b04-8e36bfdd8265,Social Services,Food Pantries,BAKER CHAPEL AME CHURCH | MAIN OFFICE | 2ND SAT FOOD BOX DISTRIBUTION,"817-336-5326 
							Main Phone",,1050 E Humbolt St,Fort Worth,TX,76104,http://www.bakerchapelamechurch.org/,"Social Services, Food Pantries",Provides food boxes with fresh produce and other food items. This is not a food pantry. The agency only distributes food boxes once per month.,https://tarrant.tx.networkofcare.org/pr/services/agency.aspx?pid=BakerChapelAMEChurchMainOffice2ndSatFoodBoxDistribution_1208_19_0
ee354ee2-0c2a-4673-9209-463ecefdcbd7,Social Services,Food Pantries,EAST ST PAUL BAPTIST CHURCH | MAIN OFFICE | 2ND AND 4TH TUES JEREMIAH FOOD PANTRY,"817-293-5067 
							Main Phone",espsect@swbell.net,5300 Oak Grove Road West,Fort Worth,TX,76134,http://www.espbc.com/,"Social Services, Food Pantries",Provides non-perishable food items through food pantry.,https://tarrant.tx.networkofcare.org/pr/services/agency.aspx?pid=EastStPaulBaptistChurchMainOffice2ndand4thTuesJeremiahFoodPantry_1208_19_0
14364aeb-6385-4b8d-9287-5b5d9950202d,Social Services,Food Pantries,"ARLINGTON CHARITIES | ARLINGTON OFFICE | 3RD AND 4TH FRI, 2ND SAT MOBILE PANTRY",817-275-1511,info@arlingtoncharities.org,811 Secretary Drive,Arlington,TX,76015,http://www.arlingtoncharities.org/mobile-pantries,"Social Services, Food Pantries",Provides a mobile pantry three times a month.,https://tarrant.tx.networkofcare.org/pr/services/agency.aspx?pid=ArlingtonCharitiesArlingtonOffice3rdand4thFri2ndSatMobilePantry_1208_19_0
df8b2e2f-da99-4a18-a4bf-248a5a5b2d84,Social Services,Food Pantries,"ARLINGTON CHARITIES | ST ANDREWS UNITED METHODIST | 3RD AND 4TH FRI, 2ND SAT MOBILE PANTRY","817-275-1511 
							Main Phone",info@arlingtoncharities.org,2045 Green Oaks Boulevard,Arlington,TX,76018,http://www.arlingtoncharities.org/mobile-pantries,"Social Services, Food Pantries",Provides a mobile pantry three times a month.,https://tarrant.tx.networkofcare.org/pr/services/agency.aspx?pid=ArlingtonCharitiesStAndrewsUnitedMethodist3rdand4thFri2ndSatMobilePantry_1208_19_0
ee1f97c2-6aad-4d94-be31-8c3221107bf5,Social Services,Food Pantries,"ARLINGTON CHARITIES | TARRANT COUNTY COLLEGE SOUTHEAST | 3RD AND 4TH FRI, 2ND SAT MOBILE PANTRY",817-515-8223,info@arlingtoncharities.org,2100 Southeast Pkwy,Arlington,TX,76018,http://www.arlingtoncharities.org/mobile-pantries,"Social Services, Food Pantries",Provides a mobile pantry three times a month.,https://tarrant.tx.networkofcare.org/pr/services/agency.aspx?pid=ArlingtonCharitiesTarrantCountyCollegeSoutheast3rdand4thFri2ndSatMobilePantry_1208_19_0
06e14252-5a88-4c1d-b14b-4e25948df187,Social Services,Food Pantries,HOUSEHOLD OF FAITH CHARITIES | MAIN OFFICE | 2ND AND 4TH FRI FOOD PANTRY,"817-461-8857 
							Main Phone",officeadmin@hofarlington.org,5001 New York Ave,Arlington,TX,76018,http://hofcharities.org/outreach-events-initiatives/#foodpantry,"Social Services, Food Pantries",Provides perishable and non-perishable food items twice a month to those in need as well as distributes free bread.,https://tarrant.tx.networkofcare.org/pr/services/agency.aspx?pid=HouseholdofFaithCharitiesMainOffice2ndand4thFriFoodPantry_1208_19_0
30667584-c498-4d48-84c0-e30edc587c4c,Social Services,Food Pantries,LIVING WORD TEACHING CENTER | RHOME CENTER | 2ND TUES BASIC NEEDS,"940-231-5141 
							Main Phone",leoloveslinda@yahoo.com,8151 S US Hwy 287,Rhome,TX,76078,http://www.lwtcrhome.com/,"Social Services, Food Pantries","Provides food, clothing (including shoes), baby food and baby items, household goods (including furniture and appliances - based on availability/donations).",https://tarrant.tx.networkofcare.org/pr/services/agency.aspx?pid=LivingWordTeachingCenterRhomeCenter2ndTuesBasicNeeds_1208_19_0
6492cfa5-4e4f-4f6d-ae39-655c0a49fb5e,Social Services,Food Pantries,MISSION CENTRAL METROPLEX | FIRST UNITED METHODIST CHURCH OF HURST | 2ND FRI AND 4TH MON MOBILE FOOD PANTRY,"817-595-0011 
							Main Phone",info@missioncentraltx.org,521 W Pipeline Rd,Hurst,TX,76053,http://www.missioncentraltx.org/,"Social Services, Food Pantries","Hosts monthly mobile food pantry for the public at First United Methodist Church of Hurst on the second Friday of every month. Food is distributed directly to the public and may include meat, fresh produce, dairy and pantry items.This agency does not offer direct financial assistance of any kind.",https://tarrant.tx.networkofcare.org/pr/services/agency.aspx?pid=MissionCentralMetroplexFirstUnitedMethodistChurchofHurst2ndFriand4thMonMobileFoodPantry_1208_19_0
5d1e0093-0c11-401f-8b4e-e4537462baa0,Social Services,Food Pantries,ST LUKES EPISCOPAL CHURCH | MAIN OFFICE | 2ND AND 4TH TUES FOOD PANTRY,"254-968-6949 
							Main Phone",,595 North McIlhaney Street,Stephenville,TX,76401,http://www.stlukesstephenville.org/,"Social Services, Food Pantries","Provides a food pantry with canned goods, toiletries, laundry supplies, vegetables, and meats to 150 families.",https://tarrant.tx.networkofcare.org/pr/services/agency.aspx?pid=StLukesEpiscopalChurchMainOffice2ndand4thTuesFoodPantry_1208_19_0
2c125cbb-3a7e-47ee-8375-4893c84b007f,Social Services,Food Pantries,ASH LANE UNITED METHODIST CHURCH | ASH LANE UNITED METHODIST CHURCH | 3RD TUESDAY MOBILE FOOD PANTRY,"817-283-4421 
							Main Phone",office@ashlaneumc.org,1001 West Ash Lane,Euless,TX,76039,http://www.ashlaneumc.org/serve,"Social Services, Food Pantries",Provides non-perishable and perishable food items once a month to Tarrant county residents.,https://tarrant.tx.networkofcare.org/pr/services/agency.aspx?pid=AshLaneUnitedMethodistChurchAshLaneUnitedMethodistChurch3rdTuesdayMobileFoodPantry_1208_19_0
7d7c6d96-a23f-4f51-b9c7-27359c7d01b4,Social Services,Food Pantries,BETH EDEN MISSIONARY BAPTIST CHURCH | MAIN OFFICE | 3RD THURS AND 4TH TUES FOOD BANK,"817-534-0283 
							Main Phone",betheden3208@yahoo.com,3208 Wilbarger St,Fort Worth,TX,76119,http://www.bethedenchurch.org/,"Social Services, Food Pantries",Provides fresh produce and nonperishable food twice a month.,https://tarrant.tx.networkofcare.org/pr/services/agency.aspx?pid=BethEdenMissionaryBaptistChurchMainOffice3rdThursand4thTuesFoodBank_1208_19_0
a2ca15ac-7592-4931-a908-da16e1a9a5dd,Social Services,Food Pantries,FOREST HILL SEVENTH DAY ADVENTIST CHURCH | MAIN OFFICE | 3RD SAT FOOD PANTRY,"817-293-2553 
							Main Phone",,7224 Forest Hill Drive,Forest Hill,TX,76140,http://foresthillsda.org/ministries/community-service/,"Social Services, Food Pantries",Provides emergency food in form of canned goods and dried food items; no meat products at this location; also includes limited personal grooming items.,https://tarrant.tx.networkofcare.org/pr/services/agency.aspx?pid=ForestHillSeventhDayAdventistChurchMainOffice3rdSatFoodPantry_1208_19_0
258e5b09-1883-46a7-8b84-6ea679a83bf8,Social Services,Food Pantries,GREATER SWEETHOME MISSIONARY BAPTIST CHURCH | DANNYELL LORIN KIRK ANNEX BUILDING | 3RD TUES FOOD PANTRY,"817-293-8774 
							Main Phone",greatersweethome@sbcglobal.net,7312 Forest Hill Dr,Forest Hill,TX,76140,http://gsmbcfamily.org/,"Social Services, Food Pantries",Provides a food pantry with non-perishable food to families and individuals in need of food assistance.,https://tarrant.tx.networkofcare.org/pr/services/agency.aspx?pid=GreaterSweethomeMissionaryBaptistChurchDannyellLorinKirkAnnexBuilding3rdTuesFoodPantry_1208_19_0
8d1f0cf5-cd46-4e8a-967d-559c6acc35be,Social Services,Food Pantries,UNITED COMMUNITY CENTERS | WESLEY CENTER | 4TH SAT MOBILE PANTRY,"817-927-5556 
							Main Phone",info@unitedcommunitycenters.org,3600 North Crump Street,Fort Worth,TX,76106,http://www.unitedcommunitycenters.org/meal-programs,"Social Services, Food Pantries","Distributes fresh and frozen food to families and individuals via mobile food pantry once a month. The mobile food pantry does not travel to the clients.

NOTE: Mobile food pantry will be held on November 18, 2023. There will not be a mobile food pantry in December 2023",https://tarrant.tx.networkofcare.org/pr/services/agency.aspx?pid=UnitedCommunityCentersWesleyCenter4thSatMobilePantry_1208_19_0
771c96e2-860f-4d8b-a8b0-368b7e639ad4,Social Services,Food Pantries,"6 STONES MISSION NETWORK | NEW HOPE CENTER | TUES, SAT FOOD SERVICE",817-868-7400,info@6stones.org,540 West Pipeline Road,Hurst,TX,76053,http://www.6stones.org/newhope/,"Social Services, Food Pantries","Provides food to individuals in Hurst, Euless, and Bedford (HEB) area.",https://tarrant.tx.networkofcare.org/pr/services/agency.aspx?pid=6StonesMissionNetworkNewHopeCenterTuesSatFoodService_1208_19_0
d651824f-e338-4987-8dfb-74bdd926c18f,Social Services,Food Pantries,I CAN STILL SHINE | MAIN OFFICE | DOMESTIC ABUSE SERVICES,"817-427-1111 
							Main Phone",brendajackson11@aol.com,"729 Grapevine Hwy, # 160",,,,http://www.icanstillshine.org/,"Social Services, Food Pantries","Provides spousal abuse prevention, crime victim assistance, advocacy, and counseling for single, unmarried, women who have been abused and who are single moms with children. Offers a food pantry, clothing, and housing referrals.This is NOT an overnight shelter. The agency does not provide assistance with financial aid.",https://tarrant.tx.networkofcare.org/pr/services/agency.aspx?pid=ICanStillShineMainOfficeDomesticAbuseServices_1208_19_0
f503753b-28d3-4dfa-9cf0-685fc1127d8c,Social Services,Food Pantries,FAITH IN ACTION,(903) 489-7500,info@fiaoutreach.org,309 W Mitcham Street,Malakoff,TX,75148,http://www.fiaoutreach.org/,"Social Services, Food Pantries","Christian community outreach organization with a food pantry, clothing closet and other benevolence services.",https://tarrant.tx.networkofcare.org/pr/services/agency.aspx?pid=FAITHINACTION_19_1208_0
6f7a9eb8-598c-4311-a8e4-a7e97fc34d7a,Social Services,Food Pantries,WISE COUNTY COMMITTEE ON AGING | OWLS ACTIVITY CENTER | FOOD PANTRY,"940-539-0188 
							Main Phone",info@MealsOnWheelsWiseCounty.org,1200 North Miller Street,Decatur,TX,76234,,"Social Services, Food Pantries",Provides a food pantry to seniors 60 and older within Wise County.,https://tarrant.tx.networkofcare.org/pr/services/agency.aspx?pid=WiseCountyCommitteeonAgingOwlsActivityCenterFoodPantry_1208_19_0
1cbaaebf-cff6-441b-b441-d4f54cd09a6f,Social Services,Food Pantries,CHRISTIAN COMMUNITY ASSISTANCE | MAIN OFFICE | FOOD AND CLOTHING ASSISTANCE,"817-921-9622 
							Main Phone",ccadirector@att.net,1903 W Bowie St,Fort Worth,TX,76110,http://www.ccaftworth.com/,"Social Services, Food Pantries",Provides food and clothing to families in need.,https://tarrant.tx.networkofcare.org/pr/services/agency.aspx?pid=ChristianCommunityAssistanceMainOfficeFoodandClothingAssistance_1208_19_0
30e4185e-7efe-4c34-ad22-f199e5606274,Social Services,Food Pantries,ARLINGTON HEARTS AND HANDS | MAIN OFFICE | MON- FRI FOOD PANTRY AND CLOTHING,"817-459-4950 
							Main Phone Number",,1601 North Davis Drive,Arlington,TX,76012,http://www.facebook.com/Arlington-Hearts-Hands-Inc-1088459437865491/,"Social Services, Food Pantries",Provides food and clothing assistance.,https://tarrant.tx.networkofcare.org/pr/services/agency.aspx?pid=ArlingtonHeartsandHandsMainOfficeMonFriFoodPantryandClothing_1208_19_0
c041ac28-c01c-49ad-ad61-c83fea52e008,Social Services,Food Pantries,FIRST STREET METHODIST MISSION | MAIN OFFICE | WED AND THURS FOOD PANTRY,"817-335-6080 
							Main Phone",fumcfw@gmail.com,801 W 1st St,Fort Worth,TX,76102,http://fumcfw.org/mission,"Social Services, Food Pantries",Provides grocery/food pantry for clients with a residence.,https://tarrant.tx.networkofcare.org/pr/services/agency.aspx?pid=FirstStreetMethodistMissionMainOfficeWedandThursFoodPantry_1208_19_0
1593b91b-5a3f-4fd8-a83c-f853f63c59e3,Social Services,Food Pantries,LAKESIDE BAPTIST CHURCH | CHURCH SITE | TUE AND THU LOAVES AND FISHES FOOD PANTRY,"817-579-9231 
							Main Phone",care@lakesidebc.org,500 West Bluebonnet Drive,Granbury,TX,76048,http://www.lakesidebc.org/communitycare,"Social Services, Food Pantries","Provides canned and dried goods food, frozen meat and refrigerated items as well as produce, bread products and other specialty items, depending upon availability. Clients are allowed to receive food assistance once every four weeks, but exceptions are made depending upon circumstances.",https://tarrant.tx.networkofcare.org/pr/services/agency.aspx?pid=LakesideBaptistChurchChurchSiteTueandThuLoavesandFishesFoodPantry_1208_19_0
cfbc59f4-47a1-469f-b8e9-9f820db15717,Social Services,Food Pantries,FORT WORTH HOPE CENTER | MAIN OFFICE | TUES AND FRI FOOD PANTRY,"817-451-6288 
							Main Phone",,3625 E Loop 820 S,Fort Worth,TX,76119,http://www.fwhope.org/,"Social Services, Food Pantries",Provides both perishable and nonperishable food as well as pet food (as available) to anyone in need.,https://tarrant.tx.networkofcare.org/pr/services/agency.aspx?pid=FortWorthHopeCenterMainOfficeTuesandFriFoodPantry_1208_19_0
8faa82c6-7d18-4af3-8db9-d39ecea71d4c,Social Services,Food Pantries,ILLUMINATE MINISTRIES | NEIGHBORHOOD NEEDS | TUES AND SAT FOOD DISTRIBUTION,"817-370-8601 
							Main Phone",,4600 Altamesa Blvd,Fort Worth,TX,76133,http://www.nneeds.org/,"Social Services, Food Pantries",Provides food assistance .,https://tarrant.tx.networkofcare.org/pr/services/agency.aspx?pid=IlluminateMinistriesNeighborhoodNeedsTuesandSatFoodDistribution_1208_19_0
99b04387-dd47-45c3-884e-2b2e778c1896,Social Services,Food Pantries,KELLER UNITED METHODIST CHURCH | RESOURCE CENTER | TUES AND WED FOOD PANTRY AND CLOTHING CLOSET,"817-431-1332 
							Main Phone",office@kellerumc.org,1025 Johnson Rd,Keller,TX,76248,http://www.kellerumc.org/about-us/our-facilities/keller-umc-resource-center/,"Social Services, Food Pantries",Provides a food pantry with perishable and non-perishable food items and clothing.,https://tarrant.tx.networkofcare.org/pr/services/agency.aspx?pid=KellerUnitedMethodistChurchResourceCenterTuesandWedFoodPantryandClothingCloset_1208_19_0
dd967e28-e28d-43c3-9031-487a4624b101,Social Services,Food Pantries,MINERAL WELLS CENTER OF LIFE | MAIN OFFICE | TUES AND THURS FOOD PANTRY,"940-327-8700 
							Main Phone",info@mwcol.org,200 SW 5th St,Mineral Wells,TX,76067,http://mwcol.org/services,"Social Services, Food Pantries",Offers a food pantry twice a month. Assistance is limited to one visit per month.,https://tarrant.tx.networkofcare.org/pr/services/agency.aspx?pid=MineralWellsCenterofLifeMainOfficeTuesandThursFoodPantry_1208_19_0
8e1fa948-69ee-4e1a-b9f6-7e3e9fddfc27,Social Services,Food Pantries,"LOVE BASKET, THE | THE LOVE BASKET | FIRST AND THIRD FRI FOOD PANTRY","254-485-4393 
							Main Phone",sissombarbara@yahoo.com,207 E Elm St,Dublin,TX,76446,http://www.facebook.com/The-Love-Basket-131211653613930,"Social Services, Food Pantries","Provides non-perishable food as well as perishable items, i.e. frozen meats (depending on availability) to residents in need.",https://tarrant.tx.networkofcare.org/pr/services/agency.aspx?pid=LoveBasketTheTheLoveBasketFirstandThirdFriFoodPantry_1208_19_0
bfac3f97-e0f3-4175-a802-8aa789189cb0,Social Services,Food Pantries,NORTH FORT WORTH BAPTIST CHURCH | CHURCH OFFICE | MON AND THURS FOOD PANTRY,817-232-8210,info@northfortworth.com,5801 North Freeway,Fort Worth,TX,76131,http://northfortworth.com/food-pantry,"Social Services, Food Pantries","Provides non-perishable food items as well as limited baby items, depending on availability.",https://tarrant.tx.networkofcare.org/pr/services/agency.aspx?pid=NorthFortWorthBaptistChurchChurchOfficeMonandThursFoodPantry_1208_19_0
15a45335-0afa-4562-91e5-c18f2ca863c0,Social Services,Food Pantries,"OPERATION BLESSING OF JOHNSON COUNTY | MAIN OFFICE | MON, WED, THURS FOOD PANTRY AND BASIC NEEDS","817-645-8511 
							Main Phone",office@ob-jc.com,105 George Street,Cleburne,TX,76031,http://www.ob-jc.com/,"Social Services, Food Pantries","Provides food, clothing, appliances, and prescription assistance for those in need.",https://tarrant.tx.networkofcare.org/pr/services/agency.aspx?pid=OperationBlessingofJohnsonCountyMainOfficeMonWedThursFoodPantryandBasicNeeds_1208_19_0
81c9bb21-51ac-4766-8076-a7b32ea671ae,Social Services,Food Pantries,RUSH CREEK CHURCH | GREEN OAKS COMPASSION CENTER | TUES AND THURS FOOD PANTRY,"817-466-1720 
							Main Phone",rccompassioncenter@rushcreek.org,2350 Southwest Green Oaks Boulevard,Arlington,TX,76017,http://rushcreek.org/green-oaks-compassion-center/,"Social Services, Food Pantries",Provides a food pantry.,https://tarrant.tx.networkofcare.org/pr/services/agency.aspx?pid=RushCreekChurchGreenOaksCompassionCenterTuesandThursFoodPantry_1208_19_0
34578321-a42f-464f-885e-97355ddd3039,Social Services,Food Pantries,RUSH CREEK CHURCH | HANDLEY HOPE CENTER | MON AND WED FOOD PANTRY,"817-466-1720 
							Main Phone",rcfoodpantry@rushcreek.org,6801 Church Street,Fort Worth,TX,76112,http://rushcreek.org/green-oaks-compassion-center/,"Social Services, Food Pantries",Provides a food pantry.,https://tarrant.tx.networkofcare.org/pr/services/agency.aspx?pid=RushCreekChurchHandleyHopeCenterMonandWedFoodPantry_1208_19_0
04e52f87-ed12-454b-a92c-dcd2094884fd,Social Services,Food Pantries,SAINT VINCENT DE PAUL ST. JUDE CONFERENCE | ST THOMAS HALL | WED AND SAT FOOD PANTRY,"817-595-6511 
							Main Phone",stjudesvdp500@yahoo.com,310 Graves Street,Mansfield,TX,76063,http://stjudecc.org/,"Social Services, Food Pantries",Provides food assistance once a month through food pantry to those living within designated zip codes.,https://tarrant.tx.networkofcare.org/pr/services/agency.aspx?pid=SaintVincentdePaulStJudeConferenceStThomasHallWedandSatFoodPantry_1208_19_0
de5b7d50-691d-460a-a0db-57a397b63e5a,Social Services,Food Pantries,WESTERN HILLS UNITED METHODIST CHURCH | MAIN OFFICE | TUES AND THURS FOOD PANTRY,"817-244-1153 
							Phone Main",office@westernhillsumc.org,2820 Laredo Dr,Fort Worth,TX,76116,http://westernhillsumc.org/?mec-events=food-pantry,"Social Services, Food Pantries",Provides emergency food assistance.,https://tarrant.tx.networkofcare.org/pr/services/agency.aspx?pid=WesternHillsUnitedMethodistChurchMainOfficeTuesandThursFoodPantry_1208_19_0
86929349-5876-444a-8dfe-466b5f826a01,Social Services,Food Pantries,WESTHILL CHURCH OF CHRIST | BRIDGE CENTER | FRI FOOD AND CLOTHING AT THE BRIDGE,"817-641-3912 
							Main Phone",office@westhillchurch.net,401 E Henderson St,Cleburne,TX,76031,http://westhillchurch.net/outreach/the-bridge,"Social Services, Food Pantries",Provides assistance with food and clothing.,https://tarrant.tx.networkofcare.org/pr/services/agency.aspx?pid=WesthillChurchofChristBridgeCenterFriFoodandClothingatTheBridge_1208_19_0
cd97d0b3-2a60-4edb-93de-6b3e98f728d3,Social Services,Food Pantries,ARBORLAWN UNITED METHODIST CHURCH | MAIN OFFICE | TUES FOOD PANTRY,"817-921-5224 
							Assistance Line",office@arborlawnumc.org,5001 Briarhaven Road,Fort Worth,TX,76109,http://arborlawnumc.org/,"Social Services, Food Pantries",Offers emergency non-perishable food through a food pantry (may attend weekly).,https://tarrant.tx.networkofcare.org/pr/services/agency.aspx?pid=ArborlawnUnitedMethodistChurchMainOfficeTuesFoodPantry_1208_19_0
de4a35d9-a573-4f7f-98d4-ee52b599290d,Social Services,Food Pantries,GRANDVIEW AREA FOOD PANTRY | MAIN OFFICE | TUES FOOD PANTRY,"817-866-2119 
							Main Phone",stella.bou1126@gmail.com,12801 Interstate 35W,Grandview,TX,76050,http://www.facebook.com/GrandviewAreaFoodPantry/,"Social Services, Food Pantries",Provides food assistance to anyone in need.,https://tarrant.tx.networkofcare.org/pr/services/agency.aspx?pid=GrandviewAreaFoodPantryMainOfficeTuesFoodPantry_1208_19_0
e172c1b3-7dd8-4601-9690-e6dfcb51d4b1,Social Services,Food Pantries,TARRANT AREA FOOD BANK | MAIN OFFICE | LOCATION SERVICE FOR NEAREST FOOD RESOURCE,"817-857-7100 
							Main Phone",communications@tafb.org,2600 Cullen St,Fort Worth,TX,76107,http://tafb.org/find-food/,"Social Services, Food Pantries",Provides information to individuals for assistance in locating the closest food pantry.,https://tarrant.tx.networkofcare.org/pr/services/agency.aspx?pid=TarrantAreaFoodBankMainOfficeLocationServiceforNearestFoodResource_1208_19_0
e6c446df-b513-4375-8df6-0b6dba49feeb,Social Services,Food Pantries,TARRANT AREA FOOD BANK | MAIN OFFICE | SENIOR FOOD BOX PROGRAM,"817-857-7100 
							Main Phone",,2600 Cullen St,Fort Worth,TX,76107,http://tafb.org/senior-box-program/,"Social Services, Food Pantries","Offers a monthly food box to supplement the diet of low-income seniors, 60+ with USDA foods. The Commodity Supplemental Food Program (CSFP, Senior Box Program) provides a food package tailored for older adults that can help stretch your food dollars and add nutritious foods to your diet for good health.",https://tarrant.tx.networkofcare.org/pr/services/agency.aspx?pid=TarrantAreaFoodBankMainOfficeSeniorFoodBoxProgram_1208_19_0
9a4153f1-3b61-4439-8006-a4dd8e4b1ff1,Social Services,Food Pantries,TARRANT COUNTY AREA FOOD BANK,(817) 857-7100,socialservices@tafb.org,2600 Cullen St,Fort Worth,TX,76107,https://tafb.org/,"Social Services, Food Pantries",Provides food for individuals and families in need.,https://tarrant.tx.networkofcare.org/pr/services/agency.aspx?pid=TARRANTCOUNTYAREAFOODBANK_19_1208_0
bc9f4436-74bb-4ded-b0a2-43c87d3c59cf,Social Services,Food Pantries,SALVATION ARMY | GARLAND CORPS COMMUNITY CENTER | DRIVE THRU FOOD DISTRIBUTION,"817-344-1800 
							Main Phone",,451 West Ave D,Garland,TX,75040,http://salvationarmyntx.org/north-texas/cure-hunger,"Social Services, Food Pantries",Provides drive-thru food distribution.,https://tarrant.tx.networkofcare.org/pr/services/agency.aspx?pid=SalvationArmyGarlandCorpsCommunityCenterDriveThruFoodDistribution_1208_19_0
2dcee68e-be6f-491e-98aa-8b7fc3cfbcba,Social Services,Food Pantries,SALVATION ARMY | IRVING CORPS | DRIVE THRU FOOD DISTRIBUTION,"817-344-1800 
							Main Phone",,250 E Grauwyler Rd,Irving,TX,75061,http://salvationarmyntx.org/north-texas/cure-hunger,"Social Services, Food Pantries",Provides drive-thru food distribution.,https://tarrant.tx.networkofcare.org/pr/services/agency.aspx?pid=SalvationArmyIrvingCorpsDriveThruFoodDistribution_1208_19_0
2aa84597-46bf-4076-870c-72341a50374c,Social Services,Food Pantries,SALVATION ARMY | LEWISVILLE SERVICE CENTER | DRIVE THRU FOOD DISTRIBUTION,"817-344-1800 
							Main Phone",,880 Fox Ave,Lewisville,TX,75067,http://salvationarmyntx.org/north-texas/cure-hunger,"Social Services, Food Pantries",Provides drive-thru food distribution.,https://tarrant.tx.networkofcare.org/pr/services/agency.aspx?pid=SalvationArmyLewisvilleServiceCenterDriveThruFoodDistribution_1208_19_0
3dffa9dc-59d6-4e08-80cb-ed5dcf48f3a0,Social Services,Food Pantries,SALVATION ARMY | MCKINNEY CORPS | DRIVE THRU FOOD DISTRIBUTION,"817-344-1800 
							Main Phone",,600 Wilson Creek Pkwy,Mckinney,TX,75069,http://salvationarmyntx.org/north-texas/cure-hunger,"Social Services, Food Pantries",Provides drive-thru food distribution.,https://tarrant.tx.networkofcare.org/pr/services/agency.aspx?pid=SalvationArmyMcKinneyCorpsDriveThruFoodDistribution_1208_19_0
a2112275-d941-4810-99a7-37e27f7167cc,Social Services,Food Pantries,SALVATION ARMY | PLANO CORPS COMMUNITY CENTER | DRIVE THRU FOOD DISTRIBUTION,"817-344-1800 
							Main Phone",,3528 E 14th St,Plano,TX,75074,http://salvationarmyntx.org/north-texas/cure-hunger,"Social Services, Food Pantries",Provides drive-thru food distribution.,https://tarrant.tx.networkofcare.org/pr/services/agency.aspx?pid=SalvationArmyPlanoCorpsCommunityCenterDriveThruFoodDistribution_1208_19_0
1ead5bae-5fe3-4af6-89aa-8c4c59c8921e,Social Services,Food Pantries,SALVATION ARMY | WAXAHACHIE CORPS COMMUNITY CENTER | DRIVE THRU FOOD DISTRIBUTION,"817-344-1800 
							Main Phone",,620 Farley St,Waxahachie,TX,75165,http://salvationarmyntx.org/north-texas/cure-hunger,"Social Services, Food Pantries",Provides drive-thru food distribution.,https://tarrant.tx.networkofcare.org/pr/services/agency.aspx?pid=SalvationArmyWaxahachieCorpsCommunityCenterDriveThruFoodDistribution_1208_19_0
1baf6a40-56c2-4be9-9467-92b09fd07a6f,Social Services,Food Pantries,SALVATION ARMY | WAXAHACHIE CORPS COMMUNITY CENTER | DRIVE THRU FOOD DISTRIBUTION- WAXAHACIE,"972-937-7727 
							Main Phone",,620 Farley St,Waxahachie,TX,75165,,"Social Services, Food Pantries",Provides 12 locations through out Fort Worth and Dallas Provides drive-thru food distribution.,https://tarrant.tx.networkofcare.org/pr/services/agency.aspx?pid=SalvationArmyWaxahachieCorpsCommunityCenterDriveThruFoodDistributionWaxahacie_1208_19_0
44a070ca-eb9c-4497-8f04-0bb5932d19d6,Social Services,Food Pantries,LARRY JOE WRIGHT MINISTRIES EVANGELISTIC ASSOCIATION | MAIN OFFICE | THURS FOOD MINISTRY,"817-624-3344 
							Main Phone",Office@larryjoewright.org,3804 N Grove St,Fort Worth,TX,76106,https://www.facebook.com/Lifeunlimitedfoodministry,"Social Services, Food Pantries","Provides food assistance on a first-come, first-served basis.",https://tarrant.tx.networkofcare.org/pr/services/agency.aspx?pid=LarryJoeWrightMinistriesEvangelisticAssociationMainOfficeThursFoodMinistry_1208_19_0
9880488a-0ec1-4602-93b4-b967a1371bfb,Social Services,Food Pantries,TRAVIS AVENUE BAPTIST CHURCH,(817) 924-4266,,800 West Berry Street,Fort Worth,TX,76110,http://www.travis.org/,"Social Services, Food Pantries",Provide food and clothing to all zip codes on MWF from 9:30am-11:30am.,https://tarrant.tx.networkofcare.org/pr/services/agency.aspx?pid=TRAVISAVENUEBAPTISTCHURCH_19_1208_0
69bda083-3a85-4916-9a7e-23b3cdbef9e4,Social Services,Food Pantries,AZLE CHURCH OF CHRIST | MAIN OFFICE | THURS FOOD PANTRY,"817-444-4202 
							Main Phone",jfaulkneracoc@gmail.com,336 Northwest Parkway Street,Azle,TX,76020,http://www.azlechurchofchrist.com/,"Social Services, Food Pantries",Provides limited food assistance through emergency food pantry.,https://tarrant.tx.networkofcare.org/pr/services/agency.aspx?pid=AzleChurchofChristMainOfficeThursFoodPantry_1208_19_0
5497bfdd-d509-4898-bd2a-1e688de9a761,Social Services,Food Pantries,BETHLEHEM BAPTIST CHURCH | CHURCH | WED FOOD PANTRY,"817-473-1236 
							Main Phone",bbc@bbcmansfield.org,1188 West Broad Street,Mansfield,TX,76063,http://www.bethlehemmansfield.org/bbc-food-pantry/,"Social Services, Food Pantries",Provides a food pantry.,https://tarrant.tx.networkofcare.org/pr/services/agency.aspx?pid=BethlehemBaptistChurchChurchWedFoodPantry_1208_19_0
79d24d2e-6952-4e50-bc46-507cce388cbf,Social Services,Food Pantries,BIRCHMAN BAPTIST CHURCH | MAIN OFFICE | THURS BASIC NEEDS,"817-244-6590 
							Main Phone",email@birchman.org,9100 N Normandale St,Fort Worth,TX,76116,http://www.birchman.org/,"Social Services, Food Pantries","Provides a food pantry with non-perishable food items, hygiene products based on availability. Does not provide financial assistance.",https://tarrant.tx.networkofcare.org/pr/services/agency.aspx?pid=BirchmanBaptistChurchMainOfficeThursBasicNeeds_1208_19_0
a929d715-b2fb-4a49-911b-1a5161f1d766,Social Services,Food Pantries,KEYSTONE BAPTIST CHURCH,(817) 534-1515,,5020 E Rosedale Street,Fort Worth,TX,76105,http://keystonefellowshipchurch.com/,"Social Services, Food Pantries","Provides food, clothing, and some money when available.",https://tarrant.tx.networkofcare.org/pr/services/agency.aspx?pid=KEYSTONEBAPTISTCHURCH_19_1208_0
b042c517-fc17-4422-93f8-2f78ae091888,Social Services,Food Pantries,SOUTHSIDE BAPTIST CHURCH | MAIN OFFICE | OUR FATHER FOOD PANTRY,"817-573-1462 
							Main Phone",admin@southsidegranbury.com,910 Paluxy Road,Granbury,TX,76048,http://www.southsidegranbury.com/,"Social Services, Food Pantries",Provides food pantry services and public food cabinet.,https://tarrant.tx.networkofcare.org/pr/services/agency.aspx?pid=SouthsideBaptistChurchMainOfficeOurFatherFoodPantry_1208_19_0
73e5dbc4-354b-414b-b4cc-0e84e60ec60f,Social Services,Food Pantries,FIRST PRESBYTERIAN CHURCH FORT WORTH | COMMUNITY CROSSROADS | BASIC NEEDS,"817-921-3955 
							Main Phone",dalhammami@fpcfw.org,1516 Hemphill Street,Fort Worth,TX,76104,http://www.fpcfw.org/ministries/mission-and-outreach/community-crossroads/,"Social Services, Food Pantries","Provides basic needs such as clothing closet, food pantry, baby formula, and diapers. Sack lunches are available for clients experiencing homelessness. Provides two large brown grocery sacks full of food. There is about 10 pounds of meat, 10-12 pounds of produce, and 10 pounds of dry goods plus bread. Those with economic hardship may receive groceries twice per month.",https://tarrant.tx.networkofcare.org/pr/services/agency.aspx?pid=FirstPresbyterianChurchFortWorthCommunityCrossroadsBasicNeeds_1208_19_0
81abdd42-f576-45b0-a295-f354d4cf4292,Social Services,Food Pantries,WATER FROM THE ROCK | MAIN OFFICE | BASIC NEEDS WITH FOOD PANTRY,"817-860-9702 
							Main Phone",info@wftrarlington.org,402 N L Robinson Dr,Arlington,TX,76011,http://wftrarlington.org/services,"Social Services, Food Pantries","Provides food assistance through food pantry to residents in need living in designated area. In addition, clothing, hygiene products as well as food are provided to homeless individuals.",https://tarrant.tx.networkofcare.org/pr/services/agency.aspx?pid=WaterFromtheRockMainOfficeBasicNeedswithFoodPantry_1208_19_0
a57636f7-8780-4b46-bf10-d9e5e513195b,Social Services,Food Pantries,FIRST UNITED METHODIST CHURCH OF BEDFORD | MAIN OFFICE | TUES FOOD PANTRY,"817-283-5536 
							Main Phone",ph@fumcbedford.com,2012 Shady Brook Dr,Bedford,TX,76021,http://www.fumcbedford.com/,"Social Services, Food Pantries","Provides a food pantry to HEB (Hurst, Euless, Bedford) residents to serve anyone in need.",https://tarrant.tx.networkofcare.org/pr/services/agency.aspx?pid=FirstUnitedMethodistChurchofBedfordMainOfficeTuesFoodPantry_1208_19_0
698f6d7b-a1b4-40ac-835b-1af221dfbe2c,Social Services,Food Pantries,GRACE PLACE MINISTRIES | MAIN OFFICE | BENEVOLENCE PROGRAM,"254-965-4022 
							Main Phone",graceplace@fbcstephenville.org,365 W Tarleton St,Stephenville,TX,76401,http://www.fbcstephenville.org/connect/grace-place-ministry,"Social Services, Food Pantries","Provides food, diapers, and limited financial assistance with rent, utilities, and some prescription assistance. Note: The agency does not assist with deposit and reconnection and late fees. By making this referral, we know you fit the basic eligibility for this service. However, the referral to this agency is not a guarantee of assistance.",https://tarrant.tx.networkofcare.org/pr/services/agency.aspx?pid=GracePlaceMinistriesMainOfficeBenevolenceProgram_1208_19_0
36fadd70-2bd1-416d-b768-0df18da2cbad,Social Services,Food Pantries,CITY OF BLUE MOUND | CITY HALL | FOOD PANTRY,"817-232-0663 
							Main Phone",,301 South Blue Mound Road,Blue Mound,TX,76131,http://bluemoundtexas.gov/community/community-care-box/,"Social Services, Food Pantries",Provides food assistance for individuals and families. Food assistance is available once a weekduring service hours.,https://tarrant.tx.networkofcare.org/pr/services/agency.aspx?pid=CityofBlueMoundCityHallFoodPantry_1208_19_0
b9935f49-06d5-4180-a245-de7065738c35,Social Services,Food Pantries,CHRISTIAN CENTER OF FORT WORTH | LEAH VANZANT COMMUNITY LIFE CENTER | TUESDAY FOOD PANTRY,"817-834-5595 
							Main Phone",alangford@ccofw.org,4301 Northeast 28th Street,Fort Worth,TX,76117,http://www.ccofw.org/,"Social Services, Food Pantries",Provides a food pantry every Tuesday.,https://tarrant.tx.networkofcare.org/pr/services/agency.aspx?pid=ChristianCenterofFortWorthLeahVanzantCommunityLifeCenterTuesdayFoodPantry_1208_19_0
682a900f-8987-4c2e-83ec-ee120e5ba478,Social Services,Food Pantries,CINDY RAMSEY CENTER | MAIN OFFICE | CRC SAT MOBILE FOOD PANTRY,"817-379-4638 
							Main Phone",info@helpoutcenter.org,11301 N Riverside Dr,Fort Worth,TX,76244,http://cindyramseycenter.org/get-help,"Social Services, Food Pantries",Provides food assistance to families and individuals at a weekly Saturday morning Mobile Pantry in North Fort Worth. Clients are given the opportunity to register to receive food assistance for 3-12 months.,https://tarrant.tx.networkofcare.org/pr/services/agency.aspx?pid=CindyRamseyCenterMainOfficeCRCSatMobileFoodPantry_1208_19_0
2b137e27-89e5-4878-8675-341ddb47603c,Social Services,Food Pantries,HARVESTING INTERNATIONAL MINISTRY CENTER | MAIN OFFICE | WEDNESDAY MOBILE DRIVE-THRU MARKET,"817-453-3663 
							Main Phone",info@himcenter.org,150 S 6th Ave,Mansfield,TX,76063,http://himcenter.org/food-programs/,"Social Services, Food Pantries","Provides bags of groceries for low-income families throughout Tarrant County, provides variety of foods including: Fruits and Vegetables Carbohydrates (i.e. Rice, Pasta, or Beans) Bread and Rolls Protein (i.e., canned tuna, fish, or chicken) Canned Goods",https://tarrant.tx.networkofcare.org/pr/services/agency.aspx?pid=HarvestingInternationalMinistryCenterMainOfficeWednesdayMobileDriveThruMarket_1208_19_0
578981cc-4eca-485b-9bbe-87b33184619d,Social Services,Food Pantries,"MANSFIELD MISSION CENTER | LINDA NIX CLINIC | MON, WED, FRI MISSION MARKET PANTRY","817-225-4868 
							Mission Center",laurar@mansfieldmission.org,901 W Broad St,Mansfield,TX,76063,http://www.mansfieldmission.org/services,"Social Services, Food Pantries","Provides a food pantry and toiletry items, including meat, dairy, fresh produce and will vary month to month. Pet food is also available.",https://tarrant.tx.networkofcare.org/pr/services/agency.aspx?pid=MansfieldMissionCenterLindaNixClinicMonWedFriMissionMarketPantry_1208_19_0
767411cf-b19f-472a-8cbd-edf8d2e47e4f,Social Services,Food Pantries,ONE SAFE PLACE | FORT WORTH SITE | FAMILY JUSTICE CENTER,"817-916-4323 
							Main Phone",,1100 Hemphill Street,Fort Worth,TX,76104,https://www.onesafeplace.org/family-justice-center,"Social Services, Food Pantries","Provides counseling, food and clothing assistance, immigration services, job skills training, legal assistance, parenting and relationship education, victim advocacy, and case management to victims of domestic violence and their children.",https://tarrant.tx.networkofcare.org/pr/services/agency.aspx?pid=OneSafePlaceFortWorthSiteFamilyJusticeCenter_1208_19_0
af2741f6-0c13-4c61-89e3-56cf56315edf,Social Services,Food Pantries,ONE SAFE PLACE | GRAPEVINE SITE | FAMILY JUSTICE CENTER,"817-916-4323 
							Main Phone",,837 East Walnut Street,Grapevine,TX,76051,https://www.onesafeplace.org/family-justice-center,"Social Services, Food Pantries","Provides counseling, food and clothing assistance, immigration services, job skills training, legal assistance, parenting and relationship education, victim advocacy, and case management to victims of domestic violence and their children.",https://tarrant.tx.networkofcare.org/pr/services/agency.aspx?pid=OneSafePlaceGrapevineSiteFamilyJusticeCenter_1208_19_0
5bcbe260-bf5b-4e82-bc6b-41be88acb051,Social Services,Food Pantries,CENTRAL CHURCH OF CHRIST,(817) 335-1520,,3205 Hamilton Ave,Fort Worth,TX,76107,,"Social Services, Food Pantries","Provides a food pantry, clothing, and utility assistance.",https://tarrant.tx.networkofcare.org/pr/services/agency.aspx?pid=CENTRALCHURCHOFCHRIST_19_1208_0
52fc65a2-5364-4715-9c3f-1119f5efe002,Social Services,Food Pantries,SOUTHSIDE CHURCH OF CHRIST | MAIN OFFICE | TUES FOOD PANTRY,"817-923-8276 
							Main Phone Number",,2101 Hemphill Street,Fort Worth,TX,76110,http://www.sscofc.org/,"Social Services, Food Pantries",Provides a food pantry.,https://tarrant.tx.networkofcare.org/pr/services/agency.aspx?pid=SouthsideChurchofChristMainOfficeTuesFoodPantry_1208_19_0
3edfc22d-9000-4803-bd9f-74604b4f97ef,Social Services,Food Pantries,TRUE PRAISE SPIRITUAL CHURCH,(817) 293-8033,,440 Shelby Road,Fort Worth,TX,76140,http://truepraisespiritualchurch.org/,"Social Services, Food Pantries",Food pantry opens every other Saturday.,https://tarrant.tx.networkofcare.org/pr/services/agency.aspx?pid=TRUEPRAISESPIRITUALCHURCH_19_1208_0
c2bff6e7-e33d-4d34-b612-0343eee497f4,Social Services,Food Pantries,"COMMUNITY LINK MISSION | MAIN OFFICE | MON, TUES, THURS EMERGENCY FOOD","817-847-4554 
							Main Phone",info@community-link.org,300 S Belmont St,Saginaw,TX,76179,https://communitylinkmission.org/get-help,"Social Services, Food Pantries","Provides food and personal care items to those in need, covering 178 square miles in Northwest Tarrant County. Food is provided per household once a month.",https://tarrant.tx.networkofcare.org/pr/services/agency.aspx?pid=CommunityLinkMissionMainOfficeMonTuesThursEmergencyFood_1208_19_0
9e396bb0-d952-42ea-89db-414bf69bfced,Social Services,Food Pantries,PROMISES COMMUNITY MINISTRY | FOOD PANTRY WAREHOUSE | MON-THURS FOOD PANTRY,"817-295-9384 
							Main Phone",,140 Northwest Renfro Street,Burleson,TX,76028,http://firstburleson.org/promises,"Social Services, Food Pantries",Provides a food pantry to Johnson County residents. Clients are eligible for assistance once every 30 days.,https://tarrant.tx.networkofcare.org/pr/services/agency.aspx?pid=PromisesCommunityMinistryFoodPantryWarehouseMonThursFoodPantry_1208_19_0
b6b62e65-c23e-44c8-b0ed-9ae7c04bc993,Social Services,Food Pantries,"OPENING DOORS FOR WOMEN IN NEED | MAIN OFFICE | MON, TUE, THU FOOD PANTRY","817-920-9326 
							Main Phone",info@opendoors4women.org,3600 Horne St,Fort Worth,TX,76107,http://opendoors4women.org/programs/,"Social Services, Food Pantries",Provides a food pantry.,https://tarrant.tx.networkofcare.org/pr/services/agency.aspx?pid=OpeningDoorsForWomenInNeedMainOfficeMonTueThuFoodPantry_1208_19_0
d927cb25-7edb-469c-9277-59bed03cea66,Social Services,Food Pantries,"HARVEST HOUSE | MAIN OFFICE | TUES, WED, DRIVE-THRU FRI FOOD PANTRY","817-295-6252 
							Main Phone",,349 Northwest Renfro Street,Burleson,TX,76028,http://www.yourharvesthouse.org/available-services-1,"Social Services, Food Pantries","Provides food, clothing, household items as available (no furniture).",https://tarrant.tx.networkofcare.org/pr/services/agency.aspx?pid=HarvestHouseMainOfficeTuesWedDriveThruFriFoodPantry_1208_19_0
d331fd65-d287-4610-b6a5-1eb8bf73f50e,Social Services,Food Pantries,O.H. STOWE ELEMENTARY | O.H. STOWE | FOOD PANTRY,"817-481-4147 
							Main Phone",,4201 Rita Lane,Haltom City,TX,76117,,"Social Services, Food Pantries",Provides food assistance to anyone in the service area.,https://tarrant.tx.networkofcare.org/pr/services/agency.aspx?pid=OHStoweElementaryOHStoweFoodPantry_1208_19_0
4dbf4122-3b31-4b63-848b-f87632c150a8,Social Services,Food Pantries,WESTAID | MAIN OFFICE | FOOD SECURITY,"817-737-9338 
							Main Phone",westaid@westaid.org,7928 Camp Bowie West Boulevard,Fort Worth,TX,76116,https://www.westaid.org/food-security,"Social Services, Food Pantries",Provides perishable and non-perishable food items. Also provides SNAP application assistance.,https://tarrant.tx.networkofcare.org/pr/services/agency.aspx?pid=WestAidMainOfficeFoodSecurity_1208_19_0
